ShortName,FullName,CommonName,global_id,geoData,lon,lat,x,y
Физкультурно-оздоровительный комплекс «ГБУ «СШ «Борец» Москомспорта»,Физкультурно-оздоровительный комплекс «ГБУ «СШ «Борец» Москомспорта»,Физкультурно-оздоровительный комплекс «ГБУ «СШ «Борец» Москомспорта»,1074989254,"{'coordinates': [[37.3595220651864, 55.6394973313243]], 'type': 'MultiPoint'}",37.3595220651864,55.6394973313243,4158842.972576618,7486981.959765773
Крытое сооружение с искусственным льдом «Радужный»,Крытое сооружение с искусственным льдом «Радужный»,Крытое сооружение с искусственным льдом «Радужный»,1074989256,"{'coordinates': [[37.3514608573309, 55.645978610707]], 'type': 'MultiPoint'}",37.3514608573309,55.645978610707,4157945.603022965,7488260.405693955
"Физкультурно-оздоровительный комплекс «ГБУ «СШОР № 74» Москомспорта (125080, Волоколамское шоссе, дом 12)","Физкультурно-оздоровительный комплекс «ГБУ «СШОР № 74» Москомспорта (125080, Волоколамское шоссе, дом 12)","Физкультурно-оздоровительный комплекс «ГБУ «СШОР № 74» Москомспорта (125080, Волоколамское шоссе, дом 12)",1074989259,"{'coordinates': [[37.4957318871568, 55.8094854266982]], 'type': 'MultiPoint'}",37.4957318871568,55.8094854266982,4174005.780599406,7520582.699076059
Спортивный комплекс «На Таганке» (105927),Спортивный комплекс «На Таганке» (105927),Спортивный комплекс «На Таганке» (105927),1074989260,"{'coordinates': [[37.6840854802371, 55.7424064755282]], 'type': 'MultiPoint'}",37.6840854802371,55.7424064755282,4194973.206670188,7507306.043162326
Спортивный зал «ГБУ «СШ № 76» Москомспорта»,Спортивный зал «Государственное бюджетное учреждение «Спортивная школа № 76» Департамента спорта города Москвы»,Спортивный зал «ГБУ «СШ № 76» Москомспорта»,1074989261,"{'coordinates': [[37.5625788669295, 55.8622325313872]], 'type': 'MultiPoint'}",37.5625788669295,55.8622325313872,4181447.1523487703,7531038.7911033435
Спортивный комплекс «Белые медведи»,Спортивный комплекс «Белые медведи»,Спортивный комплекс «Белые медведи»,1074989262,"{'coordinates': [[37.4881792944421, 55.8699080067898]], 'type': 'MultiPoint'}",37.4881792944421,55.8699080067898,4173165.029824236,7532561.488412772
Физкультурно-оздоровительный комплекс с бассейном «Бусиново» (107202),Физкультурно-оздоровительный комплекс с бассейном «Бусиново» (107202),Физкультурно-оздоровительный комплекс с бассейном «Бусиново» (107202),1074989263,"{'coordinates': [[37.4898000033905, 55.8823651491334]], 'type': 'MultiPoint'}",37.4898000033905,55.8823651491334,4173345.446319096,7535033.436239061
Спортивный комплекс «Потаповский» (100196),Спортивный комплекс «Потаповский» (100196),Спортивный комплекс «Потаповский» (100196),1074989264,"{'coordinates': [[37.6430039066463, 55.7597238530011]], 'type': 'MultiPoint'}",37.6430039066463,55.7597238530011,4190400.026817074,7510731.411746786
Спортивный зал «ГБУ «СШ № 4» Москомспорта»,Спортивный зал «ГБУ «СШ № 4» Москомспорта»,Спортивный зал «ГБУ «СШ № 4» Москомспорта»,1074989268,"{'coordinates': [[37.9226437107113, 55.6855016330878]], 'type': 'MultiPoint'}",37.9226437107113,55.6855016330878,4221529.38741112,7496060.987013515
Футбольный манеж «ГБНОУ «Спортивный интернат «Чертаново» Москомспорта»,Футбольный манеж «ГБНОУ «Спортивный интернат «Чертаново» Москомспорта»,Футбольный манеж «ГБНОУ «Спортивный интернат «Чертаново» Москомспорта»,1074989269,"{'coordinates': [[37.5947598444649, 55.6265675545329]], 'type': 'MultiPoint'}",37.5947598444649,55.6265675545329,4185029.522381242,7484432.165975676
Бассейн плавательный «Медынский»,Бассейн плавательный «Медынский»,Бассейн плавательный «Медынский»,1074989270,"{'coordinates': [[37.6505180561899, 55.5817134417441]], 'type': 'MultiPoint'}",37.6505180561899,55.5817134417441,4191236.498118012,7475593.30514737
Физкультурно-оздоровительный комплекс с бассейном «Орехово-Борисово»,Физкультурно-оздоровительный комплекс с бассейном «Орехово-Борисово»,Физкультурно-оздоровительный комплекс с бассейном «Орехово-Борисово»,1074989271,"{'coordinates': [[37.7302032205543, 55.6147905225956]], 'type': 'MultiPoint'}",37.7302032205543,55.6147905225956,4200107.010038835,7482110.429138055
Спортивный комплекс среднего профессионального образовательного учреждения «Училище олимпийского резерва № 4 им. А.Я. Гомельского»,Спортивный комплекс среднего профессионального образовательного учреждения «Училище олимпийского резерва № 4 им. А.Я. Гомельского»,Спортивный комплекс среднего профессионального образовательного учреждения «Училище олимпийского резерва № 4 им. А.Я. Гомельского»,1074989274,"{'coordinates': [[37.6220427511702, 55.8931917543518]], 'type': 'MultiPoint'}",37.6220427511702,55.8931917543518,4188066.641663036,7537182.470900717
Физкультурно-оздоровительный комплекс «Братеево»,Физкультурно-оздоровительный комплекс «Братеево»,Физкультурно-оздоровительный комплекс «Братеево»,1074989275,"{'coordinates': [[37.7546062555121, 55.63732291086]], 'type': 'MultiPoint'}",37.7546062555121,55.63732291086,4202823.5434641475,7486553.098162686
Физкультурно-оздоровительный комплекс с бассейном «Солнечный»,Физкультурно-оздоровительный комплекс с бассейном «Солнечный»,Физкультурно-оздоровительный комплекс с бассейном «Солнечный»,1074989276,"{'coordinates': [[37.492871147299, 55.6186843369616]], 'type': 'MultiPoint'}",37.492871147299,55.6186843369616,4173687.3244951433,7482877.982740192
Бассейн плавательный «Училище олимпийского резерва № 2»,Бассейн плавательный «Училище олимпийского резерва № 2»,Бассейн плавательный «Училище олимпийского резерва № 2»,1074989278,"{'coordinates': [[37.4576975500867, 55.7351731963372]], 'type': 'MultiPoint'}",37.4576975500867,55.7351731963372,4169771.817564102,7505875.754228631
"СШОР «ГБПОУ «МССУОР № 1» Москомспорта, ул. Парковая 16-я, дом 11» (102293)","Спортивная школа олимпийского резерва «ГБПОУ «МССУОР № 1» Москомспорта, ул. Парковая 16-я, дом 11 (102293)","СШОР «ГБПОУ «МССУОР № 1» Москомспорта, ул. Парковая 16-я, дом 11» (102293)",1074989279,"{'coordinates': [[37.8221850412345, 55.7948135800111]], 'type': 'MultiPoint'}",37.8221850412345,55.7948135800111,4210346.379479193,7517676.808673587
"Спортивный зал «Спортивное сооружение ГБУ «СШОР № 42» Москомспорта» (117556, Варшавское шоссе, дом 71)","Спортивный зал «Спортивное сооружение ГБУ «СШОР № 42» Москомспорта» (117556, Варшавское шоссе, дом 71)","Спортивный зал «Спортивное сооружение ГБУ «СШОР № 42» Москомспорта» (117556, Варшавское шоссе, дом 71)",1074989283,"{'coordinates': [[37.6209473387815, 55.6610042305905]], 'type': 'MultiPoint'}",37.6209473387815,55.6610042305905,4187944.700913717,7491225.054688687
Физкультурно-оздоровительный комплекс с бассейном «Радужный»,Физкультурно-оздоровительный комплекс с бассейном «Радужный»,Физкультурно-оздоровительный комплекс с бассейном «Радужный»,1074989284,"{'coordinates': [[37.3534384536634, 55.6453603063159]], 'type': 'MultiPoint'}",37.3534384536634,55.6453603063159,4158165.748039694,7488138.434729767
Физкультурно-оздоровительный комплекс «Дмитровский» (107185),Физкультурно-оздоровительный комплекс «Дмитровский» (107185),Физкультурно-оздоровительный комплекс «Дмитровский» (107185),1074989285,"{'coordinates': [[37.5366055757521, 55.8987406025849]], 'type': 'MultiPoint'}",37.5366055757521,55.8987406025849,4178555.818800677,7538284.125876523
Спортивный комплекс «Лазурный» (108256),Спортивный комплекс «Лазурный» (108256),Спортивный комплекс «Лазурный» (108256),1074989286,"{'coordinates': [[37.4127947629998, 55.8622576623675]], 'type': 'MultiPoint'}",37.4127947629998,55.8622576623675,4164773.2621703898,7531043.776215774
"Спортивный зал «ГБПОУ «МССУОР № 1» Москомспорта» (105484, 16-я Парковая улица, дом 17, строение 4А)","Спортивный зал «ГБПОУ «МССУОР № 1» Москомспорта» (105484, 16-я Парковая улица, дом 17, строение 4А)","Спортивный зал «ГБПОУ «МССУОР № 1» Москомспорта» (105484, 16-я Парковая улица, дом 17, строение 4А)",1074989290,"{'coordinates': [[37.8221675349146, 55.7986744087369]], 'type': 'MultiPoint'}",37.8221675349146,55.7986744087369,4210344.430684576,7518441.37416377
Стадион «Тушино» (121871),Стадион «Тушино» (121871),Стадион «Тушино» (121871),1074989291,"{'coordinates': [[37.4641743235654, 55.8403301752079]], 'type': 'MultiPoint'}",37.4641743235654,55.8403301752079,4170492.8086897354,7526695.351023365
Физкультурно-оздоровительный комплекс «Спортвариант» (108176),Физкультурно-оздоровительный комплекс «Спортвариант» (108176),Физкультурно-оздоровительный комплекс «Спортвариант» (108176),1074989292,"{'coordinates': [[37.5694572638676, 55.566238837951]], 'type': 'MultiPoint'}",37.5694572638676,55.566238837951,4182212.851993394,7472546.254131579
Бассейн плавательный «Дельфин»,Бассейн плавательный «Дельфин»,Бассейн плавательный «Дельфин»,1074989294,"{'coordinates': [[37.9236425953908, 55.6855111380276]], 'type': 'MultiPoint'}",37.9236425953908,55.6855111380276,4221640.5827450035,7496062.863932733
Физкультурно-оздоровительный комплекс с бассейном «Молния»,Физкультурно-оздоровительный комплекс с бассейном «Молния»,Физкультурно-оздоровительный комплекс с бассейном «Молния»,1074989298,"{'coordinates': [[37.5350726206055, 55.8872789116005]], 'type': 'MultiPoint'}",37.5350726206055,55.8872789116005,4178385.171014348,7536008.722696904
Крытое сооружение с искусственным льдом «Ледовый дворец «Мечта»,Крытое сооружение с искусственным льдом «Ледовый дворец «Мечта»,Крытое сооружение с искусственным льдом «Ледовый дворец «Мечта»,1074989299,"{'coordinates': [[37.6149657493202, 55.8910716841966]], 'type': 'MultiPoint'}",37.6149657493202,55.8910716841966,4187278.8334207507,7536761.59886883
"Спортивный комплекс с бассейном «Умка», ул. Левобережная, дом 14, строение 1","Спортивный комплекс с бассейном «Умка», ул. Левобережная, дом 14, строение 1","Спортивный комплекс с бассейном «Умка», ул. Левобережная, дом 14, строение 1",1074989302,"{'coordinates': [[37.4697530886116, 55.8785723274826]], 'type': 'MultiPoint'}",37.4697530886116,55.8785723274826,4171113.8339739325,7534280.719192948
Комплекс спортивных сооружений «Спортивная школа олимпийского резерва № 41 «Москворечье»,Комплекс спортивных сооружений «Спортивная школа олимпийского резерва № 41 «Москворечье»,Комплекс спортивных сооружений «Спортивная школа олимпийского резерва № 41 «Москворечье»,1074989303,"{'coordinates': [[37.6187663271696, 55.7140149732664]], 'type': 'MultiPoint'}",37.6187663271696,55.7140149732664,4187701.911811666,7501693.50579545
Физкультурно-оздоровительный комплекс с фехтовальным залом «ГБПОУ «МССУОР № 3» Москомспорта»,Физкультурно-оздоровительный комплекс с фехтовальным залом «ГБПОУ «МССУОР № 3» Москомспорта»,Физкультурно-оздоровительный комплекс с фехтовальным залом «ГБПОУ «МССУОР № 3» Москомспорта»,1074989305,"{'coordinates': [[37.7316865925741, 55.7872021098381]], 'type': 'MultiPoint'}",37.7316865925741,55.7872021098381,4200272.138256736,7516169.7202157825
"Спортивный зал «Спортивное сооружение ГБУ «СШОР № 42» Москомспорта» (117535, Россошанский проезд, дом 4, корпус 4)","Спортивный зал «Спортивное сооружение ГБУ «СШОР № 42» Москомспорта» (117535, Россошанский проезд, дом 4, корпус 4)","Спортивный зал «Спортивное сооружение ГБУ «СШОР № 42» Москомспорта» (117535, Россошанский проезд, дом 4, корпус 4)",1074989311,"{'coordinates': [[37.606491585859, 55.599140571762]], 'type': 'MultiPoint'}",37.606491585859,55.599140571762,4186335.4938593507,7479026.259685519
Физкультурно-оздоровительный комплекс «ГБУ «СШ № 93 «На Можайке» Москомспорта,Физкультурно-оздоровительный комплекс «ГБУ «СШ № 93 «На Можайке» Москомспорта,Физкультурно-оздоровительный комплекс «ГБУ «СШ № 93 «На Можайке» Москомспорта,1074989312,"{'coordinates': [[37.4123592786321, 55.7554264701343]], 'type': 'MultiPoint'}",37.4123592786321,55.7554264701343,4164724.7842723294,7509881.249704141
Стадион «Молния»,Стадион «Молния»,Стадион «Молния»,1074989315,"{'coordinates': [[37.5337045303376, 55.8883417448098]], 'type': 'MultiPoint'}",37.5337045303376,55.8883417448098,4178232.8759023673,7536219.690698254
Физкультурно-оздоровительный комплекс с бассейном «Братеево»,Физкультурно-оздоровительный комплекс с бассейном «Братеево»,Физкультурно-оздоровительный комплекс с бассейном «Братеево»,1074989316,"{'coordinates': [[37.7539322808997, 55.6362216930459]], 'type': 'MultiPoint'}",37.7539322808997,55.6362216930459,4202748.516953488,7486335.913721531
Стадион «Арена Чертаново» (121423),Стадион «Арена Чертаново» (121423),Стадион «Арена Чертаново» (121423),1074989318,"{'coordinates': [[37.5936256724852, 55.6283056066192]], 'type': 'MultiPoint'}",37.5936256724852,55.6283056066192,4184903.2669339892,7484774.866522138
Спортивный комплекс «Аквамарин» (105936),Спортивный комплекс «Аквамарин» (105936),Спортивный комплекс «Аквамарин» (105936),1074989319,"{'coordinates': [[37.3664600455562, 55.8314994405156]], 'type': 'MultiPoint'}",37.3664600455562,55.8314994405156,4159615.3050185186,7524944.826690474
Спортивный зал «Училище олимпийского резерва № 2»,Спортивный зал «Училище олимпийского резерва № 2»,Спортивный зал «Училище олимпийского резерва № 2»,1074989325,"{'coordinates': [[37.4564982412538, 55.7358521897892]], 'type': 'MultiPoint'}",37.4564982412538,55.7358521897892,4169638.31111552,7506010.005271922
Комплекс спортивных сооружений «Смена»,Комплекс спортивных сооружений «Смена»,Комплекс спортивных сооружений «Смена»,1074989327,"{'coordinates': [[37.795138662672, 55.6400827167628]], 'type': 'MultiPoint'}",37.795138662672,55.6400827167628,4207335.590389814,7487097.4195791
"Физкультурно-оздоровительный комплекс «ГБУ «СШОР № 74» Москомспорта (125493, Кронштадтский бульвар, дом 20А, корпус 7А)","Физкультурно-оздоровительный комплекс «ГБУ «СШОР № 74» Москомспорта (125493, Кронштадтский бульвар, дом 20А, корпус 7А)","Физкультурно-оздоровительный комплекс «ГБУ «СШОР № 74» Москомспорта (125493, Кронштадтский бульвар, дом 20А, корпус 7А)",1074989329,"{'coordinates': [[37.5075614979311, 55.8444927439411]], 'type': 'MultiPoint'}",37.5075614979311,55.8444927439411,4175322.6468470837,7527520.638580734
Физкультурно-оздоровительный комплекс «ГБУ «СШОР № 42» Москомспорта»,Физкультурно-оздоровительный комплекс «ГБУ «СШОР № 42» Москомспорта»,Физкультурно-оздоровительный комплекс «ГБУ «СШОР № 42» Москомспорта»,1074989330,"{'coordinates': [[37.5900069072063, 55.5999558409639]], 'type': 'MultiPoint'}",37.5900069072063,55.5999558409639,4184500.427825842,7479186.8961593835
Физкультурно-оздоровительный комплекс с бассейном «Дегунино» (107186),Физкультурно-оздоровительный комплекс с бассейном «Дегунино» (107186),Физкультурно-оздоровительный комплекс с бассейном «Дегунино» (107186),1074989331,"{'coordinates': [[37.5653200856193, 55.885527760449]], 'type': 'MultiPoint'}",37.5653200856193,55.885527760449,4181752.3034174726,7535661.139028493
Физкультурно-оздоровительный комплекс «ГБПОУ «МССУОР № 1» Москомспорта,Физкультурно-оздоровительный комплекс «ГБПОУ «МССУОР № 1» Москомспорта,Физкультурно-оздоровительный комплекс «ГБПОУ «МССУОР № 1» Москомспорта,1074989335,"{'coordinates': [[37.8227815267511, 55.7950913185748]], 'type': 'MultiPoint'}",37.8227815267511,55.7950913185748,4210412.779943166,7517731.807112398
Крытое сооружение с искусственным льдом «ГБУ «СШОР № 70 «Молния» Москомспорта»,Крытое сооружение с искусственным льдом «ГБУ «СШОР № 70 «Молния» Москомспорта»,Крытое сооружение с искусственным льдом «ГБУ «СШОР № 70 «Молния» Москомспорта»,1074989336,"{'coordinates': [[37.5341655946775, 55.88691917243]], 'type': 'MultiPoint'}",37.5341655946775,55.88691917243,4178284.201349908,7535937.317266365
Физкультурно-оздоровительный комплекс с бассейном ГБУ «СШ № 76» Москомспорта,Физкультурно-оздоровительный комплекс с бассейном «Государственное бюджетное учреждение «Спортивная школа № 76» Департамента спорта города Москвы»,Физкультурно-оздоровительный комплекс с бассейном ГБУ «СШ № 76» Москомспорта,1074989338,"{'coordinates': [[37.5638440958011, 55.8623207692593]], 'type': 'MultiPoint'}",37.5638440958011,55.8623207692593,4181587.9969824944,7531056.294442446
Спортивный зал «Спортивное сооружение ГБУ «СШОР № 42» Москомспорта» (108245),Спортивный зал «Спортивное сооружение ГБУ «СШОР № 42» Москомспорта» (108245),Спортивный зал «Спортивное сооружение ГБУ «СШОР № 42» Москомспорта» (108245),1074989339,"{'coordinates': [[37.600776906757, 55.5794074357549]], 'type': 'MultiPoint'}",37.600776906757,55.5794074357549,4185699.338691669,7475139.1612963425
Спортивный комплекс «Щемиловский» (105926),Спортивный комплекс «Щемиловский» (105926),Спортивный комплекс «Щемиловский» (105926),1074989340,"{'coordinates': [[37.6095739461685, 55.778973212104]], 'type': 'MultiPoint'}",37.6095739461685,55.778973212104,4186678.620639446,7514540.710911092
Физкультурно-оздоровительный комплекс «Борец»,Физкультурно-оздоровительный комплекс «Борец»,Физкультурно-оздоровительный комплекс «Борец»,1074989341,"{'coordinates': [[37.3980349009423, 55.6539750142708]], 'type': 'MultiPoint'}",37.3980349009423,55.6539750142708,4163130.2018419695,7489838.004614561
Спортивный зал «ГБПОУ «КФКС «Спарта» Москомспорта»,Спортивный зал «ГБПОУ «КФКС «Спарта» Москомспорта»,Спортивный зал «ГБПОУ «КФКС «Спарта» Москомспорта»,1074989346,"{'coordinates': [[37.4575230784719, 55.7131899478766]], 'type': 'MultiPoint'}",37.4575230784719,55.7131899478766,4169752.3954727855,7501530.472722815
Физкультурно-оздоровительный комплекс с бассейном «ГБУ «СШОР № 82» Москомспорта»(108199),Физкультурно-оздоровительный комплекс с бассейном «ГБУ «СШОР № 82» Москомспорта»(108199),Физкультурно-оздоровительный комплекс с бассейном «ГБУ «СШОР № 82» Москомспорта»(108199),1074989347,"{'coordinates': [[37.5782526167352, 55.8792782376394]], 'type': 'MultiPoint'}",37.5782526167352,55.8792782376394,4183191.9461959624,7534420.807373128
Комплекс спортивных сооружений «Автомобилист»,Комплекс спортивных сооружений «Автомобилист»,Комплекс спортивных сооружений «Автомобилист»,1074989348,"{'coordinates': [[37.5767431129235, 55.8002309769361]], 'type': 'MultiPoint'}",37.5767431129235,55.8002309769361,4183023.909000294,7518749.6450550305
"Спортивный зал «Спортивное сооружение ГБУ «СШОР № 42» Москомспорта» (115162, Люсиновская улица, дом 62, корпус 1)","Спортивный зал «Спортивное сооружение ГБУ «СШОР № 42» Москомспорта» (115162, Люсиновская улица, дом 62, корпус 1)","Спортивный зал «Спортивное сооружение ГБУ «СШОР № 42» Москомспорта» (115162, Люсиновская улица, дом 62, корпус 1)",1074989353,"{'coordinates': [[37.6210778913964, 55.717788913546]], 'type': 'MultiPoint'}",37.6210778913964,55.717788913546,4187959.23396433,7502439.317146157
Спортивный зал «50 лет Октября» (100861),Спортивный зал «50 лет Октября» (100861),Спортивный зал «50 лет Октября» (100861),1074989354,"{'coordinates': [[37.4146250604978, 55.6481145237427]], 'type': 'MultiPoint'}",37.4146250604978,55.6481145237427,4164977.0099558677,7488681.765362597
Комплекс спортивных сооружений «Футбольная школа «Чертаново»,Комплекс спортивных сооружений «Футбольная школа «Чертаново»,Комплекс спортивных сооружений «Футбольная школа «Чертаново»,1074989355,"{'coordinates': [[37.6043237603047, 55.6296656082257]], 'type': 'MultiPoint'}",37.6043237603047,55.6296656082257,4186094.172622518,7485043.035537252
"Физкультурно-оздоровительный комплекс «ГБУ «СШОР № 74» Москомспорта (125008, бульвар Матроса Железняка, дом 22, строение 1)","Физкультурно-оздоровительный комплекс «ГБУ «СШОР № 74» Москомспорта (125008, бульвар Матроса Железняка, дом 22, строение 1)","Физкультурно-оздоровительный комплекс «ГБУ «СШОР № 74» Москомспорта (125008, бульвар Матроса Железняка, дом 22, строение 1)",1074989357,"{'coordinates': [[37.5292548671, 55.8328403437798]], 'type': 'MultiPoint'}",37.5292548671,55.8328403437798,4177737.5416565556,7525210.609530924
Физкультурно-оздоровительный комплекс «ГБПОУ «МССУОР № 3» Москомспорта,Физкультурно-оздоровительный комплекс «ГБПОУ «МССУОР № 3» Москомспорта,Физкультурно-оздоровительный комплекс «ГБПОУ «МССУОР № 3» Москомспорта,1074989358,"{'coordinates': [[37.7314661327612, 55.785935050916]], 'type': 'MultiPoint'}",37.7314661327612,55.785935050916,4200247.596782624,7515918.86824844
Стадион «ГБУ «СШ № 4» Москомспорта»,Стадион «ГБУ «СШ № 4» Москомспорта»,Стадион «ГБУ «СШ № 4» Москомспорта»,1074989363,"{'coordinates': [[37.9236425953908, 55.6855111380276]], 'type': 'MultiPoint'}",37.9236425953908,55.6855111380276,4221640.5827450035,7496062.863932733
Спортивный зал «ГБУ «СШ № 57 «Крылья Советов» Москомспорта»,Спортивный зал «ГБУ «СШ № 57 «Крылья Советов» Москомспорта»,Спортивный зал «ГБУ «СШ № 57 «Крылья Советов» Москомспорта»,1074989364,"{'coordinates': [[37.7619331044486, 55.7593728456914]], 'type': 'MultiPoint'}",37.7619331044486,55.7593728456914,4203639.164556879,7510661.967575947
Физкультурно-оздоровительный комплекс с бассейном «Спортивная школа олимпийского резерва № 41»,Физкультурно-оздоровительный комплекс с бассейном «Спортивная школа олимпийского резерва № 41»,Физкультурно-оздоровительный комплекс с бассейном «Спортивная школа олимпийского резерва № 41»,1074989365,"{'coordinates': [[37.6187340093356, 55.7143378171587]], 'type': 'MultiPoint'}",37.6187340093356,55.7143378171587,4187698.3142068414,7501757.303838159
Пункт выдачи спортивного инвентаря «ГБУ «ЦФКиС ЮАО г. Москвы» Москомспорта» (108714),Пункт выдачи спортивного инвентаря «ГБУ «ЦФКиС ЮАО г. Москвы» Москомспорта» (108714),Пункт выдачи спортивного инвентаря «ГБУ «ЦФКиС ЮАО г. Москвы» Москомспорта» (108714),1074989366,"{'coordinates': [[37.6527027487774, 55.6654364120253]], 'type': 'MultiPoint'}",37.6527027487774,55.6654364120253,4191479.696984392,7492099.769224768
Физкультурно-оздоровительный комплекс «Дорожная 44» (108253),Физкультурно-оздоровительный комплекс «Дорожная 44» (108253),Физкультурно-оздоровительный комплекс «Дорожная 44» (108253),1074989367,"{'coordinates': [[37.61287265322, 55.5878405432685]], 'type': 'MultiPoint'}",37.61287265322,55.5878405432685,4187045.831028695,7476800.103565894
Бассейн «Арбат» (105942),Бассейн «Арбат» (105942),Бассейн «Арбат» (105942),1074989368,"{'coordinates': [[37.5867805650569, 55.7512348646479]], 'type': 'MultiPoint'}",37.5867805650569,55.7512348646479,4184141.2730606454,7509052.104102069
Физкультурно-оздоровительный комплекс с бассейном «Спортивное сооружение ГБУ «СШОР № 42» Москомспорта,Физкультурно-оздоровительный комплекс с бассейном «Спортивное сооружение ГБУ «СШОР № 42» Москомспорта,Физкультурно-оздоровительный комплекс с бассейном «Спортивное сооружение ГБУ «СШОР № 42» Москомспорта,1074989371,"{'coordinates': [[37.6732906052088, 55.6285118462447]], 'type': 'MultiPoint'}",37.6732906052088,55.6285118462447,4193771.5266788607,7484815.532844029
Физкультурно-оздоровительный комплекс «ГБУ «СШ № 4» Москомспорта»,Физкультурно-оздоровительный комплекс «ГБУ «СШ № 4» Москомспорта»,Физкультурно-оздоровительный комплекс «ГБУ «СШ № 4» Москомспорта»,1074989372,"{'coordinates': [[37.9257057319141, 55.6803676825417]], 'type': 'MultiPoint'}",37.9257057319141,55.6803676825417,4221870.250052215,7495047.263937178
"Спортивный зал «ГБПОУ «МССУОР № 1» Москомспорта» (105203, 16-я Парковая улица, дом 17, строение 12)","Спортивный зал «ГБПОУ «МССУОР № 1» Москомспорта» (105203, 16-я Парковая улица, дом 17, строение 12)","Спортивный зал «ГБПОУ «МССУОР № 1» Москомспорта» (105203, 16-я Парковая улица, дом 17, строение 12)",1074989373,"{'coordinates': [[37.8211488176211, 55.7985851376541]], 'type': 'MultiPoint'}",37.8211488176211,55.7985851376541,4210231.027594201,7518423.694826178
Физкультурно-оздоровительный комплекс с бассейном «Спортивно-адаптивная школа»,Физкультурно-оздоровительный комплекс с бассейном «Спортивно-адаптивная школа»,Физкультурно-оздоровительный комплекс с бассейном «Спортивно-адаптивная школа»,1074989374,"{'coordinates': [[37.6180006513973, 55.8987836224173]], 'type': 'MultiPoint'}",37.6180006513973,55.8987836224173,4187616.677174581,7538292.667546064
Спортивный комплекс «Динамика» (108242),Спортивный комплекс «Динамика» (108242),Спортивный комплекс «Динамика» (108242),1074989375,"{'coordinates': [[37.480036373135, 55.8053648487259]], 'type': 'MultiPoint'}",37.480036373135,55.8053648487259,4172258.5639707604,7519766.4711806495
Ледовый центр «Звезда» (108250),Ледовый центр «Звезда» (108250),Ледовый центр «Звезда» (108250),1074989376,"{'coordinates': [[37.464126838859, 55.8424449074167]], 'type': 'MultiPoint'}",37.464126838859,55.8424449074167,4170487.522716398,7527114.61526243
Комплекс спортивных сооружений «Училище олимпийского резерва № 2»,Комплекс спортивных сооружений «Училище олимпийского резерва № 2»,Комплекс спортивных сооружений «Училище олимпийского резерва № 2»,1074989377,"{'coordinates': [[37.4570302969344, 55.7343901562173]], 'type': 'MultiPoint'}",37.4570302969344,55.7343901562173,4169697.539282958,7505720.933907512
Физкультурно-оздоровительный комплекс «Спортивное сооружение ГБУ «СШОР № 42» Москомспорта,Физкультурно-оздоровительный комплекс «Спортивное сооружение ГБУ «СШОР № 42» Москомспорта,Физкультурно-оздоровительный комплекс «Спортивное сооружение ГБУ «СШОР № 42» Москомспорта,1074989379,"{'coordinates': [[37.6061348027168, 55.5986496172597]], 'type': 'MultiPoint'}",37.6061348027168,55.5986496172597,4186295.7769416375,7478929.52613173
"Спортивный комплекс «Умка», ул. Левобережная, дом 12, корпус 1","Спортивный комплекс «Умка», ул. Левобережная, дом 12, корпус 1","Спортивный комплекс «Умка», ул. Левобережная, дом 12, корпус 1",1074989380,"{'coordinates': [[37.4713089942207, 55.8784442273622]], 'type': 'MultiPoint'}",37.4713089942207,55.8784442273622,4171287.0365940602,7534255.297940935
Спортивный комплекс «Акватория Тушино» (105928),Спортивный комплекс «Акватория Тушино» (105928),Спортивный комплекс «Акватория Тушино» (105928),1074989381,"{'coordinates': [[37.427189777779, 55.8653828761019]], 'type': 'MultiPoint'}",37.427189777779,55.8653828761019,4166375.7078855718,7531663.735063429
ФОК «Спортивная школа олимпийского резерва № 70 Молния»,Физкультурно-оздоровительный комплекс «Спортивная школа олимпийского резерва № 70 Молния»,ФОК «Спортивная школа олимпийского резерва № 70 Молния»,1074989382,"{'coordinates': [[37.5405332930053, 55.8852557972802]], 'type': 'MultiPoint'}",37.5405332930053,55.8852557972802,4178993.050285284,7535607.158826883
Физкультурно-оздоровительный комплекс «ГБУ «СШОР «Энтузиаст» Москомспорта»,Физкультурно-оздоровительный комплекс «ГБУ «СШОР «Энтузиаст» Москомспорта»,Физкультурно-оздоровительный комплекс «ГБУ «СШОР «Энтузиаст» Москомспорта»,1074997673,"{'coordinates': [[37.7775966036332, 55.726090015268]], 'type': 'MultiPoint'}",37.7775966036332,55.726090015268,4205382.817310149,7504080.046081416
Дворец спорта «Москвич»,Дворец спорта «Москвич»,Дворец спорта «Москвич»,1074997674,"{'coordinates': [[37.7316998329823, 55.7067465675735]], 'type': 'MultiPoint'}",37.7316998329823,55.7067465675735,4200273.612172236,7500257.316297698
Спортивный комплекс «Русь»,Спортивный комплекс «Русь»,Спортивный комплекс «Русь»,1074997675,"{'coordinates': [[37.7368403269867, 55.6076796723949]], 'type': 'MultiPoint'}",37.7368403269867,55.6076796723949,4200845.849347231,7480708.926051669
ФОК ГБУ «Московская теннисная академия» Москомспорта,Физкультурно-оздоровительный комплекс с бассейном ГБУ «Московская теннисная академия» Москомспорта,ФОК ГБУ «Московская теннисная академия» Москомспорта,1074997678,"{'coordinates': [[37.4767020792179, 55.6750062411728]], 'type': 'MultiPoint'}",37.4767020792179,55.6750062411728,4171887.3920697533,7493988.763734782
Спортивный комплекс «Савелки» (108173),Спортивный комплекс «Савелки» (108173),Спортивный комплекс «Савелки» (108173),1074997679,"{'coordinates': [[37.2245186983152, 55.9874802578854]], 'type': 'MultiPoint'}",37.2245186983152,55.9874802578854,4143814.4665211393,7555923.733131259
"Пункт выдачи спортивного инвентаря ГБУ «МосСпортОбъект», ул. Заречье, дом 7, строение 5 (100013)","Пункт выдачи спортивного инвентаря ГБУ «МосСпортОбъект», ул. Заречье, дом 7, строение 5 (100013)","Пункт выдачи спортивного инвентаря ГБУ «МосСпортОбъект», ул. Заречье, дом 7, строение 5 (100013)",1074997680,"{'coordinates': [[37.7735836954517, 55.6886763623298]], 'type': 'MultiPoint'}",37.7735836954517,55.6886763623298,4204936.102414784,7496687.919073682
Спортивный зал «ГБУ «СШОР № 65 «Ника» Москомспорта»,Спортивный зал «ГБУ «СШОР № 65 «Ника» Москомспорта»,Спортивный зал «ГБУ «СШОР № 65 «Ника» Москомспорта»,1074997681,"{'coordinates': [[37.6868386758436, 55.701124774651]], 'type': 'MultiPoint'}",37.6868386758436,55.701124774651,4195279.691003158,7499146.669943135
Физкультурно-оздоровительный комплекс «Атлант Гольяново»,Физкультурно-оздоровительный комплекс «Атлант Гольяново»,Физкультурно-оздоровительный комплекс «Атлант Гольяново»,1074997683,"{'coordinates': [[37.7971370697864, 55.8218460278173]], 'type': 'MultiPoint'}",37.7971370697864,55.8218460278173,4207558.052052186,7523031.676847228
Спортивный комплекс «Южнопортовый» (106821),Спортивный комплекс «Южнопортовый» (106821),Спортивный комплекс «Южнопортовый» (106821),1074997686,"{'coordinates': [[37.6833253917261, 55.7012680580169]], 'type': 'MultiPoint'}",37.6833253917261,55.7012680580169,4194888.594004186,7499174.975146828
Ледовый центр «Русь»,Ледовый центр «Русь»,Ледовый центр «Русь»,1074997688,"{'coordinates': [[37.7324467694264, 55.6109650221374]], 'type': 'MultiPoint'}",37.7324467694264,55.6109650221374,4200356.760756847,7481356.4158859765
Спортивный комплекс «Нагорный»,Спортивный комплекс «Нагорный»,Спортивный комплекс «Нагорный»,1074997689,"{'coordinates': [[37.5987069336119, 55.6717016210667]], 'type': 'MultiPoint'}",37.5987069336119,55.6717016210667,4185468.9103352013,7493336.410497845
Лыжная база ГБОУ ЦСиО «Самбо 70» отделение «Битца»,Лыжная база ГБОУ ЦСиО «Самбо 70» отделение «Битца»,Лыжная база ГБОУ ЦСиО «Самбо 70» отделение «Битца»,1074997690,"{'coordinates': [[37.5596008729864, 55.5687556047193]], 'type': 'MultiPoint'}",37.5596008729864,55.5687556047193,4181115.6435794397,7473041.740267895
Многофункциональный спортивный комплекс «ЦСТиСК»,Многофункциональный спортивный комплекс «Центр спортивных технологий и сборных команд»,Многофункциональный спортивный комплекс «ЦСТиСК»,1074997691,"{'coordinates': [[37.6178822973738, 55.7868680260809]], 'type': 'MultiPoint'}",37.6178822973738,55.7868680260809,4187603.5020649508,7516103.577615943
Физкультурно-оздоровительный комплекс «Скиф»,Физкультурно-оздоровительный комплекс «Скиф»,Физкультурно-оздоровительный комплекс «Скиф»,1074997692,"{'coordinates': [[37.8156618315321, 55.824932112041]], 'type': 'MultiPoint'}",37.8156618315321,55.824932112041,4209620.2190967845,7523643.237064863
Физкультурно-оздоровительный комплекс «Акулово»,Физкультурно-оздоровительный комплекс «Акулово»,Физкультурно-оздоровительный комплекс «Акулово»,1074997693,"{'coordinates': [[37.7983481370151, 56.0058341302896]], 'type': 'MultiPoint'}",37.7983481370151,56.0058341302896,4207692.867439401,7559577.154084034
Бассейн «Марьино» (106408),Бассейн «Марьино» (106408),Бассейн «Марьино» (106408),1074997695,"{'coordinates': [[37.7260794074305, 55.6490645590201]], 'type': 'MultiPoint'}",37.7260794074305,55.6490645590201,4199647.949261767,7488869.18981087
СК ГБУ «Московская баскетбольная академия» Москомспорта структурное подразделение СШОР «Глория» (106156),Спортивный комплекс ГБУ «Московская баскетбольная академия» Москомспорта структурное подразделение СШОР «Глория» имени Ю.И. Бирюкова (106156),СК ГБУ «Московская баскетбольная академия» Москомспорта структурное подразделение СШОР «Глория» (106156),1074997696,"{'coordinates': [[37.5841436795191, 55.7658092319396]], 'type': 'MultiPoint'}",37.5841436795191,55.7658092319396,4183847.7363052974,7511935.457820614
Поле для гольфа «Гольф Центр Москва» (105937),Поле для гольфа «Гольф Центр Москва» (105937),Поле для гольфа «Гольф Центр Москва» (105937),1074997698,"{'coordinates': [[37.3689781733918, 55.8978009355997]], 'type': 'MultiPoint'}",37.3689781733918,55.8978009355997,4159895.6217269297,7538097.55557245
Физкультурно-оздоровительный комплекс «Семья»,Физкультурно-оздоровительный комплекс «Семья»,Физкультурно-оздоровительный комплекс «Семья»,1074997703,"{'coordinates': [[37.4709896171149, 55.6640058290927]], 'type': 'MultiPoint'}",37.4709896171149,55.6640058290927,4171251.483697272,7491817.425261727
Спортивный комплекс «Михневский»,Спортивный комплекс «Михневский»,Спортивный комплекс «Михневский»,1074997704,"{'coordinates': [[37.6611779064289, 55.5851770945638]], 'type': 'MultiPoint'}",37.6611779064289,55.5851770945638,4192423.147218549,7476275.485607129
Комплекс спортивных сооружений «ГБОУ ЦСиО Самбо-70 отделение Севастопольский»,Комплекс спортивных сооружений «ГБОУ ЦСиО Самбо-70 отделение Севастопольский»,Комплекс спортивных сооружений «ГБОУ ЦСиО Самбо-70 отделение Севастопольский»,1074997705,"{'coordinates': [[37.5573990015054, 55.664289304663]], 'type': 'MultiPoint'}",37.5573990015054,55.664289304663,4180870.532367382,7491873.371995854
СК «Севастопольский проспект»,Спортивный комплекс «Севастопольский проспект»,СК «Севастопольский проспект»,1074997706,"{'coordinates': [[37.5395243833427, 55.6250735094271]], 'type': 'MultiPoint'}",37.5395243833427,55.6250735094271,4178880.7389753866,7484137.589670156
Комплекс спортивных сооружений «ГБУ «СШОР по теннису «Олимпиец» Москомспорта» (108039),Комплекс спортивных сооружений «ГБУ «СШОР по теннису «Олимпиец» Москомспорта» (108039),Комплекс спортивных сооружений «ГБУ «СШОР по теннису «Олимпиец» Москомспорта» (108039),1074997707,"{'coordinates': [[37.3530109254171, 55.6464691766684]], 'type': 'MultiPoint'}",37.3530109254171,55.6464691766684,4158118.155813016,7488357.179469539
Ледовый центр «Марьино»,Ледовый центр «Марьино»,Ледовый центр «Марьино»,1074997708,"{'coordinates': [[37.7541325252427, 55.6537978696629]], 'type': 'MultiPoint'}",37.7541325252427,55.6537978696629,4202770.808051785,7489803.052520839
Физкультурно-оздоровительный комплекс «ГБУ «Московская баскетбольная академия» Москомспорта структурное подразделение СШОР № 56»,Физкультурно-оздоровительный комплекс «ГБУ «Московская баскетбольная академия» Москомспорта структурное подразделение СШОР № 56»,Физкультурно-оздоровительный комплекс «ГБУ «Московская баскетбольная академия» Москомспорта структурное подразделение СШОР № 56»,1074997709,"{'coordinates': [[37.8178700739872, 55.8159610872981]], 'type': 'MultiPoint'}",37.8178700739872,55.8159610872981,4209866.039522435,7521865.60996262
Физкультурно-оздоровительный комплекс «Гелиос»,Физкультурно-оздоровительный комплекс «Гелиос»,Физкультурно-оздоровительный комплекс «Гелиос»,1074997710,"{'coordinates': [[37.9004599933345, 55.7160207599354]], 'type': 'MultiPoint'}",37.9004599933345,55.7160207599354,4219059.9072888335,7502089.88318783
Физкультурно-оздоровительный комплекс «ГБУ «ЦОП» Москомспорта»,Физкультурно-оздоровительный комплекс «ГБУ «ЦОП» Москомспорта»,Физкультурно-оздоровительный комплекс «ГБУ «ЦОП» Москомспорта»,1074997711,"{'coordinates': [[37.7407617681176, 55.7890644660846]], 'type': 'MultiPoint'}",37.7407617681176,55.7890644660846,4201282.382177099,7516538.443788844
"Спортивный комплекс «Серебряный» ул. Генерала Глаголева, дом 10, корпус 3, строение 2 (121398)","Спортивный комплекс «Серебряный» ул. Генерала Глаголева, дом 10, корпус 3, строение 2 (121398)","Спортивный комплекс «Серебряный» ул. Генерала Глаголева, дом 10, корпус 3, строение 2 (121398)",1074997712,"{'coordinates': [[37.4654748038317, 55.7814707647778]], 'type': 'MultiPoint'}",37.4654748038317,55.7814707647778,4170637.577490765,7515035.095147044
Спортивный комплекс «Альбатрос Внуково» (106940),Спортивный комплекс «Альбатрос Внуково» (106940),Спортивный комплекс «Альбатрос Внуково» (106940),1074997713,"{'coordinates': [[37.31039275063, 55.6135005327303]], 'type': 'MultiPoint'}",37.31039275063,55.6135005327303,4153373.9222971774,7481856.161517008
Спортивный клуб «Ладья» (100978),Спортивный клуб «Ладья» (100978),Спортивный клуб «Ладья» (100978),1074997714,"{'coordinates': [[37.4596736304224, 55.705092966069]], 'type': 'MultiPoint'}",37.4596736304224,55.705092966069,4169991.7938208394,7499930.612743141
Бассейн плавательный крытый ГБОУ ЦСиО Самбо-70 Москомспорта отделение Юность (106320),Бассейн плавательный крытый ГБОУ ЦСиО Самбо-70 Москомспорта отделение Юность (106320),Бассейн плавательный крытый ГБОУ ЦСиО Самбо-70 Москомспорта отделение Юность (106320),1074997715,"{'coordinates': [[37.4833839756074, 55.6407697485199]], 'type': 'MultiPoint'}",37.4833839756074,55.6407697485199,4172631.2173733665,7487232.930033495
ВМХ-велодром «Амурский»,ВМХ-велодром «Амурский»,ВМХ-велодром «Амурский»,1074997716,"{'coordinates': [[37.7612409324492, 55.8068860057195]], 'type': 'MultiPoint'}",37.7612409324492,55.8068860057195,4203562.112322364,7520067.780687526
Стадион «Ангстрем»,Стадион «Ангстрем»,Стадион «Ангстрем»,1074997718,"{'coordinates': [[37.2242845610467, 55.9823243002366]], 'type': 'MultiPoint'}",37.2242845610467,55.9823243002366,4143788.4024796337,7554897.728578827
Ледовый центр «Снежные барсы»,Ледовый центр «Снежные барсы»,Ледовый центр «Снежные барсы»,1074997719,"{'coordinates': [[37.8532030245653, 55.730368936774]], 'type': 'MultiPoint'}",37.8532030245653,55.730368936774,4213799.285589012,7504925.91950089
Дворец спорта «Янтарь» (108262),Дворец спорта «Янтарь» (108262),Дворец спорта «Янтарь» (108262),1074997720,"{'coordinates': [[37.4114122241791, 55.8044729802755]], 'type': 'MultiPoint'}",37.4114122241791,55.8044729802755,4164619.3586528683,7519589.816097808
Атлетический клуб «Аксон» имени Ю.С. Поветкина (109898),Атлетический клуб «Аксон» имени Ю.С. Поветкина (109898),Атлетический клуб «Аксон» имени Ю.С. Поветкина (109898),1074997721,"{'coordinates': [[37.6733659728101, 55.7202014080955]], 'type': 'MultiPoint'}",37.6733659728101,55.7202014080955,4193779.91656186,7502916.11544715
Крытое сооружение с искусственным льдом ГБУ «СШОР «Москвич» Москомспорта,Крытое сооружение с искусственным льдом «Спортивная школа олимпийского резерва «Москвич» Департамента спорта города Москвы»,Крытое сооружение с искусственным льдом ГБУ «СШОР «Москвич» Москомспорта,1074997723,"{'coordinates': [[37.7383551028665, 55.708261366589]], 'type': 'MultiPoint'}",37.7383551028665,55.708261366589,4201014.473426836,7500556.6086520655
Бассейн плавательный «ГБОУ ЦСиО Самбо-70 отделение Ясенево»,Бассейн плавательный «ГБОУ ЦСиО Самбо-70 отделение Ясенево»,Бассейн плавательный «ГБОУ ЦСиО Самбо-70 отделение Ясенево»,1074997724,"{'coordinates': [[37.5190096614501, 55.6047870521945]], 'type': 'MultiPoint'}",37.5190096614501,55.6047870521945,4176597.0505805365,7480138.881821344
Физкультурно-оздоровительный комплекс «Одиссей»,Физкультурно-оздоровительный комплекс «Одиссей»,Физкультурно-оздоровительный комплекс «Одиссей»,1074997725,"{'coordinates': [[37.8285102491566, 55.7590329885204]], 'type': 'MultiPoint'}",37.8285102491566,55.7590329885204,4211050.498404243,7510594.72997223
СК «Ново-Переделкино»,Спортивный комплекс «Ново-Переделкино»,СК «Ново-Переделкино»,1074997726,"{'coordinates': [[37.3797200486554, 55.6302163540462]], 'type': 'MultiPoint'}",37.3797200486554,55.6302163540462,4161091.4018114386,7485151.63582436
Физкультурно-оздоровительный комплекс ГБУ «ЦОП» Москомспорта,Физкультурно-оздоровительный комплекс «Центр олимпийской подготовки» Москомспорта,Физкультурно-оздоровительный комплекс ГБУ «ЦОП» Москомспорта,1074997727,"{'coordinates': [[37.8796528726498, 55.8157355295674]], 'type': 'MultiPoint'}",37.8796528726498,55.8157355295674,4216743.669209338,7521820.920513519
"Комплекс спортивных сооружений ГБУ «Московская теннисная академия» Москомспорта (119607, улица Удальцова, дом 54)","Комплекс спортивных сооружений ГБУ «Московская теннисная академия» Москомспорта (119607, улица Удальцова, дом 54)","Комплекс спортивных сооружений ГБУ «Московская теннисная академия» Москомспорта (119607, улица Удальцова, дом 54)",1074997728,"{'coordinates': [[37.4909697565563, 55.6862238178472]], 'type': 'MultiPoint'}",37.4909697565563,55.6862238178472,4173475.662645866,7496203.596523284
Спортивно-оздоровительный центр «Юность Москвы»,Спортивно-оздоровительный центр «Юность Москвы»,Спортивно-оздоровительный центр «Юность Москвы»,1074997731,"{'coordinates': [[37.5631500302437, 55.7842250385881]], 'type': 'MultiPoint'}",37.5631500302437,55.7842250385881,4181510.733958067,7515580.333425892
Физкультурно-спортивный центр «Экстрим» (115343),Физкультурно-спортивный центр «Экстрим» (115343),Физкультурно-спортивный центр «Экстрим» (115343),1074997732,"{'coordinates': [[37.7029583124757, 55.7705337196034]], 'type': 'MultiPoint'}",37.7029583124757,55.7705337196034,4197074.120744816,7512870.369108172
Спортивный комплекс «Ледовый» (108168),Спортивный комплекс «Ледовый» (108168),Спортивный комплекс «Ледовый» (108168),1074997733,"{'coordinates': [[37.1681691573643, 55.9710441377562]], 'type': 'MultiPoint'}",37.1681691573643,55.9710441377562,4137541.66431605,7552653.521024132
Ледовый дворец спорта «Центральный»,Ледовый дворец спорта «Центральный»,Ледовый дворец спорта «Центральный»,1074997735,"{'coordinates': [[37.6786771154246, 55.7304110958247]], 'type': 'MultiPoint'}",37.6786771154246,55.7304110958247,4194371.150253236,7504934.254123017
Физкультурно-оздоровительный комплекс «ГБУ «Московская баскетбольная академия» Москомспорта Структурное подразделение СШОР №71 «Тимирязевская»,Физкультурно-оздоровительный комплекс «ГБУ «Московская баскетбольная академия» Москомспорта Структурное подразделение СШОР №71 «Тимирязевская»,Физкультурно-оздоровительный комплекс «ГБУ «Московская баскетбольная академия» Москомспорта Структурное подразделение СШОР №71 «Тимирязевская»,1074997736,"{'coordinates': [[37.5598656284705, 55.8812295611605]], 'type': 'MultiPoint'}",37.5598656284705,55.8812295611605,4181145.116025114,7534808.061634605
Физкультурно-оздоровительный комплекс с бассейном «Альбатрос» ГБУ «ЦФКиС ВАО г. Москвы» Москомспорта»,Физкультурно-оздоровительный комплекс с бассейном «Альбатрос» ГБУ «ЦФКиС ВАО г. Москвы» Москомспорта»,Физкультурно-оздоровительный комплекс с бассейном «Альбатрос» ГБУ «ЦФКиС ВАО г. Москвы» Москомспорта»,1074997737,"{'coordinates': [[37.8979972125048, 55.7231088810917]], 'type': 'MultiPoint'}",37.8979972125048,55.7231088810917,4218785.751780936,7503490.778965729
Физкультурно-оздоровительный комплекс с бассейном «Жемчужина»,Физкультурно-оздоровительный комплекс с бассейном «Жемчужина»,Физкультурно-оздоровительный комплекс с бассейном «Жемчужина»,1074997738,"{'coordinates': [[37.3564046826807, 55.8322190312922]], 'type': 'MultiPoint'}",37.3564046826807,55.8322190312922,4158495.9471434755,7525087.456929327
Стадион «Рублево» (108116),Стадион «Рублево» (108116),Стадион «Рублево» (108116),1074997739,"{'coordinates': [[37.3533273806113, 55.7886311687341]], 'type': 'MultiPoint'}",37.3533273806113,55.7886311687341,4158153.3834440927,7516452.654682662
Физкультурно-оздоровительный комплекс «ГБОУ «ЦСиО «Самбо-70» Москомспорта отделение «Олимпия»»,Физкультурно-оздоровительный комплекс «ГБОУ «ЦСиО «Самбо-70» Москомспорта отделение «Олимпия»»,Физкультурно-оздоровительный комплекс «ГБОУ «ЦСиО «Самбо-70» Москомспорта отделение «Олимпия»»,1074997740,"{'coordinates': [[37.5208741130813, 55.6777980669466]], 'type': 'MultiPoint'}",37.5208741130813,55.6777980669466,4176804.60038673,7494539.931020045
Спортивный комплекс высшего учебного заведения «ГАОУ ВО МГУСИТ» (Южный кампус) (108270),Спортивный комплекс высшего учебного заведения «ГАОУ ВО Московский государственный университет спорта и туризма» (Южный кампус) (108270),Спортивный комплекс высшего учебного заведения «ГАОУ ВО МГУСИТ» (Южный кампус) (108270),1074997744,"{'coordinates': [[37.6025263794066, 55.6021689717433]], 'type': 'MultiPoint'}",37.6025263794066,55.6021689717433,4185894.089096179,7479622.976960455
Спортивный зал «Рублёво»,Спортивный зал «Рублёво»,Спортивный зал «Рублёво»,1074997745,"{'coordinates': [[37.3539609714388, 55.790305168691]], 'type': 'MultiPoint'}",37.3539609714388,55.790305168691,4158223.914452382,7516784.097390459
СШОР №49 «Тринта имени Ю. Я. Равинского»» (108254),ГБУ «Московская баскетбольная академия» Москомспорта Структурное подразделение СШОР №49 «Тринта имени Ю. Я. Равинского» (108254),СШОР №49 «Тринта имени Ю. Я. Равинского»» (108254),1074997746,"{'coordinates': [[37.6095710843031, 55.7002600877814]], 'type': 'MultiPoint'}",37.6095710843031,55.7002600877814,4186678.3020580467,7498975.855820972
Физкультурно-оздоровительный комплекс «Сфера»,Физкультурно-оздоровительный комплекс «Сфера»,Физкультурно-оздоровительный комплекс «Сфера»,1074997748,"{'coordinates': [[37.5727759024611, 55.6774987292379]], 'type': 'MultiPoint'}",37.5727759024611,55.6774987292379,4182582.2811517497,7494480.833346401
Спортивный зал «На ул. Новопесчаная»,Спортивный зал «На ул. Новопесчаная»,Спортивный зал «На ул. Новопесчаная»,1074997750,"{'coordinates': [[37.5111507656127, 55.7936453052951]], 'type': 'MultiPoint'}",37.5111507656127,55.7936453052951,4175722.2022977197,7517445.468481473
Ледовый центр «Метеор»,Ледовый центр «Метеор»,Ледовый центр «Метеор»,1074997751,"{'coordinates': [[37.5296235647042, 55.5306937812188]], 'type': 'MultiPoint'}",37.5296235647042,55.5306937812188,4177778.5848861127,7465551.741781713
Спортивный комплекс «Старт»(108050),Спортивный комплекс «Старт»(108050),Спортивный комплекс «Старт»(108050),1074997752,"{'coordinates': [[37.4523324704405, 55.7237904869684]], 'type': 'MultiPoint'}",37.4523324704405,55.7237904869684,4169174.579629822,7503625.504905295
Комплекс спортивных сооружений «Академия тенниса»,Комплекс спортивных сооружений «Академия тенниса»,Комплекс спортивных сооружений «Академия тенниса»,1074997753,"{'coordinates': [[37.473813182922, 55.675993186787]], 'type': 'MultiPoint'}",37.473813182922,55.675993186787,4171565.8016051394,7494183.603825157
"КП Олимпийский учебно-спортивный центр Крылатское, владение 2, строение 5",КП Олимпийский учебно-спортивный центр Крылатское,"КП Олимпийский учебно-спортивный центр Крылатское, владение 2, строение 5",1074997756,"{'coordinates': [[37.4434789335369, 55.7529472496997]], 'type': 'MultiPoint'}",37.4434789335369,55.7529472496997,4168189.008409994,7509390.821908046
"Комплекс спортивных сооружений «ГБУ «СШОР № 111» Москомспорта» (124460, город Зеленоград, Озёрная аллея, дом 10)","Комплекс спортивных сооружений «ГБУ «СШОР № 111» Москомспорта» (124460, город Зеленоград, Озёрная аллея, дом 10)","Комплекс спортивных сооружений «ГБУ «СШОР № 111» Москомспорта» (124460, город Зеленоград, Озёрная аллея, дом 10)",1074997757,"{'coordinates': [[37.2222129451843, 55.9875365235675]], 'type': 'MultiPoint'}",37.2222129451843,55.9875365235675,4143557.7912567123,7555934.930418133
ФОК «Гармония»,Физкультурно-оздоровительный комплекс с бассейном «Гармония»,ФОК «Гармония»,1074997758,"{'coordinates': [[37.4987470430328, 55.646760553458]], 'type': 'MultiPoint'}",37.4987470430328,55.646760553458,4174341.426216184,7488414.659840719
Физкультурно-оздоровительный комплекс «ГБУ «СШОР «Трудовые резервы» Москомспорта»,Физкультурно-оздоровительный комплекс «ГБУ «СШОР «Трудовые резервы» Москомспорта»,Физкультурно-оздоровительный комплекс «ГБУ «СШОР «Трудовые резервы» Москомспорта»,1074997759,"{'coordinates': [[37.8127259550246, 55.7902966085389]], 'type': 'MultiPoint'}",37.8127259550246,55.7902966085389,4209293.398818937,7516782.4024915835
Комплекс спортивных сооружений «ГБУ «СШОР «Трудовые резервы» Москомспорта»,Комплекс спортивных сооружений «ГБУ «СШОР «Трудовые резервы» Москомспорта»,Комплекс спортивных сооружений «ГБУ «СШОР «Трудовые резервы» Москомспорта»,1074997760,"{'coordinates': [[37.812509875139, 55.7904961712205]], 'type': 'MultiPoint'}",37.812509875139,55.7904961712205,4209269.3449161025,7516821.915737362
Физкультурно-оздоровительный комплекс «Дворец единоборств»,Физкультурно-оздоровительный комплекс «Дворец единоборств»,Физкультурно-оздоровительный комплекс «Дворец единоборств»,1074997761,"{'coordinates': [[37.1531106356079, 55.9846419443566]], 'type': 'MultiPoint'}",37.1531106356079,55.9846419443566,4135865.3573420285,7555358.90888898
Физкультурно-оздоровительный комплекс «Олимп»,Физкультурно-оздоровительный комплекс «Олимп»,Физкультурно-оздоровительный комплекс «Олимп»,1074997763,"{'coordinates': [[37.5495247700919, 55.6128428668752]], 'type': 'MultiPoint'}",37.5495247700919,55.6128428668752,4179993.976936043,7481726.533382797
Крытое сооружение с искусственным льдом «Ледовый дворец Хрустальный»,Крытое сооружение с искусственным льдом «Ледовый дворец Хрустальный»,Крытое сооружение с искусственным льдом «Ледовый дворец Хрустальный»,1074997764,"{'coordinates': [[37.524335393274, 55.6379504787725]], 'type': 'MultiPoint'}",37.524335393274,55.6379504787725,4177189.9083352746,7486676.871127421
Физкультурно-оздоровительный комплекс «Атлант-Косино»,Физкультурно-оздоровительный комплекс «Атлант-Косино»,Физкультурно-оздоровительный комплекс «Атлант-Косино»,1074997765,"{'coordinates': [[37.8536557526515, 55.712489732375]], 'type': 'MultiPoint'}",37.8536557526515,55.712489732375,4213849.683049035,7501392.106003931
Ледовый центр «Синяя птица»,Ледовый центр «Синяя птица»,Ледовый центр «Синяя птица»,1074997766,"{'coordinates': [[37.5997255407838, 55.8713161103398]], 'type': 'MultiPoint'}",37.5997255407838,55.8713161103398,4185582.3011668953,7532840.867358774
ВМХ-велодром «Коломенский»,ВМХ-велодром «Коломенский»,ВМХ-велодром «Коломенский»,1074997768,"{'coordinates': [[37.6564509298339, 55.6662053897411]], 'type': 'MultiPoint'}",37.6564509298339,55.6662053897411,4191896.942591003,7492251.541143937
"Многофункциональный спортивный комплекс «Формула воды», ул. Ибрагимова, дом 32","Многофункциональный спортивный комплекс «Формула воды», ул. Ибрагимова, дом 32","Многофункциональный спортивный комплекс «Формула воды», ул. Ибрагимова, дом 32",1074997769,"{'coordinates': [[37.7307329728699, 55.788708421318]], 'type': 'MultiPoint'}",37.7307329728699,55.788708421318,4200165.981796855,7516467.949952361
ФОК «Рекорд»,Физкультурно-оздоровительный комплекс «Рекорд»,ФОК «Рекорд»,1074997770,"{'coordinates': [[37.5330442799027, 55.5508910203618]], 'type': 'MultiPoint'}",37.5330442799027,55.5508910203618,4178159.3771601575,7469525.3535878295
Спортивный комплекс «Гольф Центр Москва» (121394),Спортивный комплекс «Гольф Центр Москва» (121394),Спортивный комплекс «Гольф Центр Москва» (121394),1074997771,"{'coordinates': [[37.3812689355535, 55.9038698945146]], 'type': 'MultiPoint'}",37.3812689355535,55.9038698945146,4161263.8231122317,7539302.623314863
"Спортивный комплекс «Серебряный» ул. Генерала Глаголева, дом 10, корпус 3","Спортивный комплекс «Серебряный» ул. Генерала Глаголева, дом 10, корпус 3","Спортивный комплекс «Серебряный» ул. Генерала Глаголева, дом 10, корпус 3",1074997772,"{'coordinates': [[37.4661873077673, 55.7812600190312]], 'type': 'MultiPoint'}",37.4661873077673,55.7812600190312,4170716.893066065,7514993.377335332
Досуговый центр «на Ленинском»,Досуговый центр «на Ленинском»,Досуговый центр «на Ленинском»,1074997774,"{'coordinates': [[37.4747090152228, 55.6440662293623]], 'type': 'MultiPoint'}",37.4747090152228,55.6440662293623,4171665.5252007004,7487883.162468208
ФОК «Надежда»,Физкультурно-оздоровительный комплекс с бассейном «Надежда»,ФОК «Надежда»,1074997775,"{'coordinates': [[37.5293372861865, 55.6804448374172]], 'type': 'MultiPoint'}",37.5293372861865,55.6804448374172,4177746.7165072965,7495062.497551303
Физкультурно-оздоровительный комплекс ГБУ «Московская гандбольная академия»,Физкультурно-оздоровительный комплекс «ГБУ «Московская гандбольная академия»,Физкультурно-оздоровительный комплекс ГБУ «Московская гандбольная академия»,1074997776,"{'coordinates': [[37.4192474104843, 55.8624360678356]], 'type': 'MultiPoint'}",37.4192474104843,55.8624360678356,4165491.567602633,7531079.165748358
СК «Олимпийская деревня-80»,Спортивный комплекс «Олимпийская деревня-80»,СК «Олимпийская деревня-80»,1074997778,"{'coordinates': [[37.473813182922, 55.675993186787]], 'type': 'MultiPoint'}",37.473813182922,55.675993186787,4171565.8016051394,7494183.603825157
"Пункт выдачи спортивного инвентаря «ГБУ «ЦФКиС САО г. Москвы» Москомспорта, деревня Новосёлки» (105945)","Пункт выдачи спортивного инвентаря «ГБУ «ЦФКиС САО г. Москвы» Москомспорта, деревня Новосёлки» (105945)","Пункт выдачи спортивного инвентаря «ГБУ «ЦФКиС САО г. Москвы» Москомспорта, деревня Новосёлки» (105945)",1074997779,"{'coordinates': [[37.3907225295332, 55.9275102808489]], 'type': 'MultiPoint'}",37.3907225295332,55.9275102808489,4162316.192380218,7543998.516447198
Спортивный комплекс «Атлет»,Спортивный комплекс «Атлет»,Спортивный комплекс «Атлет»,1074997782,"{'coordinates': [[37.5900607188846, 55.6247027658357]], 'type': 'MultiPoint'}",37.5900607188846,55.6247027658357,4184506.418114469,7484064.493028719
ГБУ «СШОР № 73 «Виктория» Москомспорта,Государственное бюджетное учреждение города Москвы Спортивная школа олимпийского резерва № 73 Виктория Департамента спорта города Москвы,ГБУ «СШОР № 73 «Виктория» Москомспорта,1074997783,"{'coordinates': [[37.505905482064, 55.7999747594988]], 'type': 'MultiPoint'}",37.505905482064,55.7999747594988,4175138.300004012,7518698.901569051
Физкультурно-оздоровительный комплекс ГБОУ ЦСиО Самбо-70 «Строгино»,Физкультурно-оздоровительный комплекс ГБОУ ЦСиО Самбо-70 «Строгино»,Физкультурно-оздоровительный комплекс ГБОУ ЦСиО Самбо-70 «Строгино»,1074997784,"{'coordinates': [[37.3987707420397, 55.8085640179297]], 'type': 'MultiPoint'}",37.3987707420397,55.8085640179297,4163212.1152982377,7520400.173602727
Физкультурно-оздоровительный комплекс «ГБОУ ЦСиО Самбо-70 отделение Ясенево»,Физкультурно-оздоровительный комплекс «ГБОУ ЦСиО Самбо-70 отделение Ясенево»,Физкультурно-оздоровительный комплекс «ГБОУ ЦСиО Самбо-70 отделение Ясенево»,1074997785,"{'coordinates': [[37.5200692107768, 55.6044873004621]], 'type': 'MultiPoint'}",37.5200692107768,55.6044873004621,4176714.9990720553,7480079.812610664
"Многофункциональный спортивный комплекс «Формула воды», ул. Ткацкая, дом 25, строение 6","Многофункциональный спортивный комплекс «Формула воды», ул. Ткацкая, дом 25, строение 6","Многофункциональный спортивный комплекс «Формула воды», ул. Ткацкая, дом 25, строение 6",1074997786,"{'coordinates': [[37.7313578171944, 55.7872005456278]], 'type': 'MultiPoint'}",37.7313578171944,55.7872005456278,4200235.539148883,7516169.41052884
Пункт выдачи спортивного инвентаря «ГБУ «ЦФКиС ТиНАО г. Москвы» Москомспорта» (121853),Пункт выдачи спортивного инвентаря «ГБУ «ЦФКиС ТиНАО г. Москвы» Москомспорта» (121853),Пункт выдачи спортивного инвентаря «ГБУ «ЦФКиС ТиНАО г. Москвы» Москомспорта» (121853),1074997788,"{'coordinates': [[37.1759038735444, 55.3135362151568]], 'type': 'MultiPoint'}",37.1759038735444,55.3135362151568,4138402.688982649,7422956.432451469
Физкультурно-оздоровительный комплекс «Московская академия лыжных гонок и биатлона»,Физкультурно-оздоровительный комплекс «Московская академия лыжных гонок и биатлона»,Физкультурно-оздоровительный комплекс «Московская академия лыжных гонок и биатлона»,1074997790,"{'coordinates': [[37.6102247047492, 55.6061370354155]], 'type': 'MultiPoint'}",37.6102247047492,55.6061370354155,4186751.0627532788,7480404.915714271
Досуговый центр «На ул. Черняховского»,Досуговый центр «На ул. Черняховского»,Досуговый центр «На ул. Черняховского»,1074997791,"{'coordinates': [[37.5385240607551, 55.8075394847965]], 'type': 'MultiPoint'}",37.5385240607551,55.8075394847965,4178769.383574306,7520197.224892802
"Многофункциональный спортивный комплекс «Формула воды», ул. Мироновская, дом 27, строение 2","Многофункциональный спортивный комплекс «Формула воды», ул. Мироновская, дом 27, строение 2","Многофункциональный спортивный комплекс «Формула воды», ул. Мироновская, дом 27, строение 2",1074997792,"{'coordinates': [[37.731145741293, 55.7878962278895]], 'type': 'MultiPoint'}",37.731145741293,55.7878962278895,4200211.930967529,7516307.144970515
Гребной канал Москва,Гребной канал Москва,Гребной канал Москва,1074997793,"{'coordinates': [[37.4415724585228, 55.7532572478255]], 'type': 'MultiPoint'}",37.4415724585228,55.7532572478255,4167976.7805822142,7509452.14258291
Спортивный комплекс «Малино» (108172),Спортивный комплекс «Малино» (108172),Спортивный комплекс «Малино» (108172),1074997794,"{'coordinates': [[37.1995643958663, 55.9731969028596]], 'type': 'MultiPoint'}",37.1995643958663,55.9731969028596,4141036.5662794253,7553081.766782573
Физкультурно-оздоровительный комплекс «Центр спортивных единоборств Северное Бутово»,Физкультурно-оздоровительный комплекс «Центр спортивных единоборств Северное Бутово»,Физкультурно-оздоровительный комплекс «Центр спортивных единоборств Северное Бутово»,1074997795,"{'coordinates': [[37.5789590995351, 55.56783612216]], 'type': 'MultiPoint'}",37.5789590995351,55.56783612216,4183270.5915015014,7472860.714306395
Ледовый центр «Пингвины»,Ледовый центр «Пингвины»,Ледовый центр «Пингвины»,1074997796,"{'coordinates': [[37.6532140908297, 55.5805771105019]], 'type': 'MultiPoint'}",37.6532140908297,55.5805771105019,4191536.6193212755,7475369.513216082
"Пункт выдачи спортивного инвентаря «ГБУ «ЦФКиС Зеленоградского АО г. Москвы» Москомспорта, Озёрная аллея, вл. 3» (108706)","Пункт выдачи спортивного инвентаря «ГБУ «ЦФКиС Зеленоградского АО г. Москвы» Москомспорта, Озёрная аллея, вл. 3» (108706)","Пункт выдачи спортивного инвентаря «ГБУ «ЦФКиС Зеленоградского АО г. Москвы» Москомспорта, Озёрная аллея, вл. 3» (108706)",1074997797,"{'coordinates': [[37.2242845610467, 55.9823243002366]], 'type': 'MultiPoint'}",37.2242845610467,55.9823243002366,4143788.4024796337,7554897.728578827
Спортивный комплекс «Олимпиец» (109834),Спортивный комплекс «Олимпиец» (109834),Спортивный комплекс «Олимпиец» (109834),1074997798,"{'coordinates': [[37.9156048661894, 55.7046462754085]], 'type': 'MultiPoint'}",37.9156048661894,55.7046462754085,4220745.826823169,7499842.36203441
Спортивный комплекс «Вдохновение»,Спортивный комплекс «Вдохновение»,Спортивный комплекс «Вдохновение»,1074997799,"{'coordinates': [[37.689816812755, 55.7415834260317]], 'type': 'MultiPoint'}",37.689816812755,55.7415834260317,4195611.215687647,7507143.282229469
Спортивный зал «Самбо-70 Черемушки»,Спортивный зал «Самбо-70 Черемушки»,Спортивный зал «Самбо-70 Черемушки»,1074997800,"{'coordinates': [[37.527722439046, 55.6515893429458]], 'type': 'MultiPoint'}",37.527722439046,55.6515893429458,4177566.9525459073,7489367.3052405
ВМХ-велодром «Бутырский» (открытый),ВМХ-велодром «Бутырский» (открытый),ВМХ-велодром «Бутырский» (открытый),1074997801,"{'coordinates': [[37.574464961688, 55.8270819719773]], 'type': 'MultiPoint'}",37.574464961688,55.8270819719773,4182770.3063648073,7524069.297145224
Комплекс спортивных сооружений «ГБУ «СШОР № 53» Москомспорта»,Комплекс спортивных сооружений «ГБУ «СШОР № 53» Москомспорта»,Комплекс спортивных сооружений «ГБУ «СШОР № 53» Москомспорта»,1074997802,"{'coordinates': [[37.8195308805214, 55.7211416697852]], 'type': 'MultiPoint'}",37.8195308805214,55.7211416697852,4210050.919660128,7503101.953968328
Ледовый центр «Созвездие»,Ледовый центр «Созвездие»,Ледовый центр «Созвездие»,1074997803,"{'coordinates': [[37.5401411990062, 55.5933476881637]], 'type': 'MultiPoint'}",37.5401411990062,55.5933476881637,4178949.4025809607,7477884.955644119
Физкультурно-оздоровительный комплекс с бассейном «Изумрудный»,Физкультурно-оздоровительный комплекс с бассейном «Изумрудный»,Физкультурно-оздоровительный комплекс с бассейном «Изумрудный»,1074997807,"{'coordinates': [[37.5114612681042, 55.5316735217707]], 'type': 'MultiPoint'}",37.5114612681042,55.5316735217707,4175756.767276963,7465744.449179257
Физкультурно-оздоровительный комплекс с бассейном «Олимпия»,Физкультурно-оздоровительный комплекс с бассейном «Олимпия»,Физкультурно-оздоровительный комплекс с бассейном «Олимпия»,1074997808,"{'coordinates': [[37.8260692439877, 55.7467742043101]], 'type': 'MultiPoint'}",37.8260692439877,55.7467742043101,4210778.766951818,7508169.834343623
Физкультурно-оздоровительный комплекс «Гагаринский Самбо-70»,Физкультурно-оздоровительный комплекс «Гагаринский Самбо-70»,Физкультурно-оздоровительный комплекс «Гагаринский Самбо-70»,1074997809,"{'coordinates': [[37.5639178380983, 55.6950850406926]], 'type': 'MultiPoint'}",37.5639178380983,55.6950850406926,4181596.2059374684,7497953.632790948
Бассейн плавательный «Касатка»,Бассейн плавательный «Касатка»,Бассейн плавательный «Касатка»,1074997810,"{'coordinates': [[37.8298015615729, 55.7597811411876]], 'type': 'MultiPoint'}",37.8298015615729,55.7597811411876,4211194.246644881,7510742.745845327
Физкультурно-оздоровительный комплекс с бассейном «Новое поколение-Вешняки»,Физкультурно-оздоровительный комплекс с бассейном «Новое поколение-Вешняки»,Физкультурно-оздоровительный комплекс с бассейном «Новое поколение-Вешняки»,1074997811,"{'coordinates': [[37.8334759161127, 55.7249011649087]], 'type': 'MultiPoint'}",37.8334759161127,55.7249011649087,4211603.273921245,7503845.046092107
Стадион «Янтарь»,Стадион «Янтарь»,Стадион «Янтарь»,1074997812,"{'coordinates': [[37.4142057558969, 55.801325126441]], 'type': 'MultiPoint'}",37.4142057558969,55.801325126441,4164930.3331812085,7518966.343510069
Крытые теннисные корты «Спортивная школа олимпийского резерва Москвич» (109899),Крытые теннисные корты «Спортивная школа олимпийского резерва Москвич» (109899),Крытые теннисные корты «Спортивная школа олимпийского резерва Москвич» (109899),1074997813,"{'coordinates': [[37.7371378738046, 55.7066047037564]], 'type': 'MultiPoint'}",37.7371378738046,55.7066047037564,4200878.972107486,7500229.287592038
Комплекс спортивных сооружений «ГБУ «СШОР № 103 «Южное Тушино» Москомспорта»,Комплекс спортивных сооружений «ГБУ «СШОР № 103 «Южное Тушино» Москомспорта»,Комплекс спортивных сооружений «ГБУ «СШОР № 103 «Южное Тушино» Москомспорта»,1074997815,"{'coordinates': [[37.4112943879519, 55.8394590614689]], 'type': 'MultiPoint'}",37.4112943879519,55.8394590614689,4164606.2411840586,7526522.65170329
Бассейн плавательный ГБУ «Московская академия современного пятиборья»,Бассейн плавательный ГБУ «Московская академия современного пятиборья»,Бассейн плавательный ГБУ «Московская академия современного пятиборья»,1074997817,"{'coordinates': [[37.5556381307663, 55.936438393995]], 'type': 'MultiPoint'}",37.5556381307663,55.936438393995,4180674.513133353,7545772.729536629
СК «Северное Бутово»,Спортивный комплекс «Северное Бутово»,СК «Северное Бутово»,1074997818,"{'coordinates': [[37.585784606535, 55.5712866500988]], 'type': 'MultiPoint'}",37.585784606535,55.5712866500988,4184030.4034651364,7473540.069513685
Дворец спорта «Баскет Холл Москва» (108077),Дворец спорта «Баскет Холл Москва» (108077),Дворец спорта «Баскет Холл Москва» (108077),1074997820,"{'coordinates': [[37.4434971090003, 55.757215362979]], 'type': 'MultiPoint'}",37.4434971090003,55.757215362979,4168191.031693324,7510235.139485901
ВМХ-велодром «Марьинский» (открытый),ВМХ-велодром «Марьинский» (открытый),ВМХ-велодром «Марьинский» (открытый),1074997821,"{'coordinates': [[37.7685692628209, 55.6598817138947]], 'type': 'MultiPoint'}",37.7685692628209,55.6598817138947,4204377.898327706,7491003.535778938
ГБОУ «ЦСиО «Самбо-70» Москомспорта отделение «Олимпия»,ГБОУ «ЦСиО «Самбо-70» Москомспорта отделение «Олимпия»,ГБОУ «ЦСиО «Самбо-70» Москомспорта отделение «Олимпия»,1074997823,"{'coordinates': [[37.5216549916302, 55.6774517263681]], 'type': 'MultiPoint'}",37.5216549916302,55.6774517263681,4176891.527389165,7494471.55370043
Досуговый центр «Шахматная школа «Триумф»,Досуговый центр «Шахматная школа «Триумф»,Досуговый центр «Шахматная школа «Триумф»,1074997824,"{'coordinates': [[37.5101577633174, 55.5382877530655]], 'type': 'MultiPoint'}",37.5101577633174,55.5382877530655,4175611.661787851,7467045.542985219
Комплекс спортивных сооружений ГБУ «ЦОП» Москомспорта,Комплекс спортивных сооружений ГБУ «ЦОП» Москомспорта,Комплекс спортивных сооружений ГБУ «ЦОП» Москомспорта,1075721806,"{'coordinates': [[37.8775989304376, 55.816235517362]], 'type': 'MultiPoint'}",37.8775989304376,55.816235517362,4216515.025408157,7521919.982770508
Спортивный зал «ГБУ «СШОР № 61 «Фортуна» Москомспорта»,Спортивный зал «ГБУ «СШОР № 61 «Фортуна» Москомспорта»,Спортивный зал «ГБУ «СШОР № 61 «Фортуна» Москомспорта»,1089210988,"{'coordinates': [[37.6735307767333, 55.7141615296504]], 'type': 'MultiPoint'}",37.6735307767333,55.7141615296504,4193798.2624506713,7501722.467128067
Спортивный комплекс «Парус»,Спортивный комплекс «Парус»,Спортивный комплекс «Парус»,1091558386,"{'coordinates': [[37.8496034773259, 55.6920822596647]], 'type': 'MultiPoint'}",37.8496034773259,55.6920822596647,4213398.585823236,7497360.557827537
Спортивный комплекс «Медведково Арена»,Спортивный комплекс «Медведково Арена»,Спортивный комплекс «Медведково Арена»,1091558389,"{'coordinates': [[37.6575037964964, 55.8939484088377]], 'type': 'MultiPoint'}",37.6575037964964,55.8939484088377,4192014.1471717455,7537332.685984393
Досуговый центр «На ул. Дубнинская»,Досуговый центр «На ул. Дубнинская»,Досуговый центр «На ул. Дубнинская»,1091558390,"{'coordinates': [[37.5610568613225, 55.8668592817756]], 'type': 'MultiPoint'}",37.5610568613225,55.8668592817756,4181277.7234596144,7531956.631823723
"Комплекс спортивных сооружений «ГБУ «Дворец детского спорта» Москомспорта» (109544, Рабочая улица, дом 53, строение 1)","Комплекс спортивных сооружений «ГБУ «Дворец детского спорта» Москомспорта» (109544, Рабочая улица, дом 53, строение 1)","Комплекс спортивных сооружений «ГБУ «Дворец детского спорта» Москомспорта» (109544, Рабочая улица, дом 53, строение 1)",1091558391,"{'coordinates': [[37.6905678288054, 55.7407822332907]], 'type': 'MultiPoint'}",37.6905678288054,55.7407822332907,4195694.818411956,7506984.846844125
"Спортивный комплекс «Луч», ул. Владимирская 1-я, дом 10Б, строение 3","Спортивный комплекс «Луч», ул. Владимирская 1-я, дом 10Б, строение 3","Спортивный комплекс «Луч», ул. Владимирская 1-я, дом 10Б, строение 3",1091558392,"{'coordinates': [[37.771645846722, 55.7588684429334]], 'type': 'MultiPoint'}",37.771645846722,55.7588684429334,4204720.38208096,7510562.176357455
Спортивный комплекс «Речной»,Спортивный комплекс «Речной»,Спортивный комплекс «Речной»,1091558393,"{'coordinates': [[37.4846883412384, 55.8563766370518]], 'type': 'MultiPoint'}",37.4846883412384,55.8563766370518,4172776.4186912174,7529877.27325298
"Спортивный комплекс «Гребной канал Москва» (121552, Крылатская улица, дом 2, строение 20)","Спортивный комплекс «Гребной канал Москва» (121552, Крылатская улица, дом 2, строение 20)","Спортивный комплекс «Гребной канал Москва» (121552, Крылатская улица, дом 2, строение 20)",1091558394,"{'coordinates': [[37.4418924649562, 55.7538374322409]], 'type': 'MultiPoint'}",37.4418924649562,55.7538374322409,4168012.4035354303,7509566.910069881
Лыжная база и трасса (сезонная) «Гребной канал Москва»,Лыжная база и трасса (сезонная) «Гребной канал Москва»,Лыжная база и трасса (сезонная) «Гребной канал Москва»,1091558396,"{'coordinates': [[37.4415724585228, 55.7532572478255]], 'type': 'MultiPoint'}",37.4415724585228,55.7532572478255,4167976.7805822142,7509452.14258291
Спортивный комплекс «Марфино»,Спортивный комплекс «Марфино»,Спортивный комплекс «Марфино»,1091558398,"{'coordinates': [[37.5912447373928, 55.8315039064671]], 'type': 'MultiPoint'}",37.5912447373928,55.8315039064671,4184638.222451891,7524945.711879522
"Спортивный комплекс «Гребной канал Москва» (121552, Крылатская улица, дом 2, строение 2)","Спортивный комплекс «Гребной канал Москва» (121552, Крылатская улица, дом 2, строение 2)","Спортивный комплекс «Гребной канал Москва» (121552, Крылатская улица, дом 2, строение 2)",1091558399,"{'coordinates': [[37.4346160525662, 55.7525822708109]], 'type': 'MultiPoint'}",37.4346160525662,55.7525822708109,4167202.397013374,7509318.626122737
Спортивный комплекс «Дом спорта»,Спортивный комплекс «Дом спорта»,Спортивный комплекс «Дом спорта»,1091558400,"{'coordinates': [[37.5562498972643, 55.9047374813595]], 'type': 'MultiPoint'}",37.5562498972643,55.9047374813595,4180742.614668395,7539474.908944152
"Спортивный комплекс «Косино», ул. Николая Старостина, дом 8А","Спортивный комплекс «Косино», ул. Николая Старостина, дом 8А","Спортивный комплекс «Косино», ул. Николая Старостина, дом 8А",1091558401,"{'coordinates': [[37.8531812333095, 55.7297414246292]], 'type': 'MultiPoint'}",37.8531812333095,55.7297414246292,4213796.859797513,7504801.864721115
"Спортивный зал ГБУ «МосСпортОбъект», г. Зеленоград, корпус 317А, строение 1 (121386)","Спортивный зал ГБУ «МосСпортОбъект», г. Зеленоград, корпус 317А, строение 1 (121386)","Спортивный зал ГБУ «МосСпортОбъект», г. Зеленоград, корпус 317А, строение 1 (121386)",1091558402,"{'coordinates': [[37.2163135959783, 55.9968172324938]], 'type': 'MultiPoint'}",37.2163135959783,55.9968172324938,4142901.0787070883,7557782.083181679
"Лыжная база (сезонная) «ГБУ «СШОР № 70 «Молния» Москомспорта, ул. Лобненская, дом 13А»","Лыжная база (сезонная) «ГБУ «СШОР № 70 «Молния» Москомспорта, ул. Лобненская, дом 13А»","Лыжная база (сезонная) «ГБУ «СШОР № 70 «Молния» Москомспорта, ул. Лобненская, дом 13А»",1091558403,"{'coordinates': [[37.5337045303376, 55.8883417448098]], 'type': 'MultiPoint'}",37.5337045303376,55.8883417448098,4178232.8759023673,7536219.690698254
Спортивный зал «ГБУ «СШОР № 82» Москомспорта»(122304),Спортивный зал «ГБУ «СШОР № 82» Москомспорта»(122304),Спортивный зал «ГБУ «СШОР № 82» Москомспорта»(122304),1091558404,"{'coordinates': [[37.5782526167352, 55.8792782376394]], 'type': 'MultiPoint'}",37.5782526167352,55.8792782376394,4183191.9461959624,7534420.807373128
Бассейн плавательный «ГБУ СШ «Битца»,Бассейн плавательный «ГБУ СШ «Битца»,Бассейн плавательный «ГБУ СШ «Битца»,1091558405,"{'coordinates': [[37.5798458063887, 55.6431805369]], 'type': 'MultiPoint'}",37.5798458063887,55.6431805369,4183369.2992569273,7487708.453826768
"Пункт выдачи спортивного инвентаря «ГБУ «СШОР № 1» Москомспорта, ул. Левобережная, дом 12, корпус 1» (122307)","Пункт выдачи спортивного инвентаря «ГБУ «СШОР № 1» Москомспорта, ул. Левобережная, дом 12, корпус 1» (122307)","Пункт выдачи спортивного инвентаря «ГБУ «СШОР № 1» Москомспорта, ул. Левобережная, дом 12, корпус 1» (122307)",1091558406,"{'coordinates': [[37.4713089942207, 55.8784442273622]], 'type': 'MultiPoint'}",37.4713089942207,55.8784442273622,4171287.0365940602,7534255.297940935
"Пункт выдачи спортивного инвентаря ГБУ «МосСпортОбъект», проезд Олонецкий, дом 5 (122314)","Пункт выдачи спортивного инвентаря ГБУ «МосСпортОбъект», проезд Олонецкий, дом 5 (122314)","Пункт выдачи спортивного инвентаря ГБУ «МосСпортОбъект», проезд Олонецкий, дом 5 (122314)",1091558407,"{'coordinates': [[37.665638359796, 55.8795101747752]], 'type': 'MultiPoint'}",37.665638359796,55.8795101747752,4192919.6826160825,7534466.835955397
Спортивный комплекс «Академический»,Спортивный комплекс «Академический»,Спортивный комплекс «Академический»,1091558408,"{'coordinates': [[37.5518883976866, 55.8438723689866]], 'type': 'MultiPoint'}",37.5518883976866,55.8438723689866,4180257.09475631,7527397.634952639
Спортивный комплекс «Полярная звезда»,Спортивный комплекс «Полярная звезда»,Спортивный комплекс «Полярная звезда»,1091558409,"{'coordinates': [[37.6537841651656, 55.8835815773223]], 'type': 'MultiPoint'}",37.6537841651656,55.8835815773223,4191600.079706062,7535274.862120788
ВМХ-велодром «Марьинский» (крытый),ВМХ-велодром «Марьинский» (крытый),ВМХ-велодром «Марьинский» (крытый),1091558410,"{'coordinates': [[37.7685692628209, 55.6598817138947]], 'type': 'MultiPoint'}",37.7685692628209,55.6598817138947,4204377.898327706,7491003.535778938
"Комплекс спортивных сооружений «ГБУ «СШОР № 111» Москомспорта» (124482, город Зеленоград, корпус 348Б)","Комплекс спортивных сооружений «ГБУ «СШОР № 111» Москомспорта» (124482, город Зеленоград, корпус 348Б)","Комплекс спортивных сооружений «ГБУ «СШОР № 111» Москомспорта» (124482, город Зеленоград, корпус 348Б)",1091558411,"{'coordinates': [[37.2242149973688, 55.9950772400317]], 'type': 'MultiPoint'}",37.2242149973688,55.9950772400317,4143780.6586864316,7557435.736216287
Спортивный зал «Училище олимпийского резерва № 4 им. А.Я. Гомельского»,Спортивный зал «Училище олимпийского резерва № 4 им. А.Я. Гомельского»,Спортивный зал «Училище олимпийского резерва № 4 им. А.Я. Гомельского»,1091558413,"{'coordinates': [[37.6220427511702, 55.8931917543518]], 'type': 'MultiPoint'}",37.6220427511702,55.8931917543518,4188066.641663036,7537182.470900717
"Спортивный комплекс «Луч», ул. Владимирская 1-я, дом 10Б, строение 2","Спортивный комплекс «Луч», ул. Владимирская 1-я, дом 10Б, строение 2","Спортивный комплекс «Луч», ул. Владимирская 1-я, дом 10Б, строение 2",1091558414,"{'coordinates': [[37.7710355898048, 55.7586368086216]], 'type': 'MultiPoint'}",37.7710355898048,55.7586368086216,4204652.448591683,7510516.350176451
Крытые площадки для пляжных видов спорта ГБУ «ЦОП» Москомспорта,Крытые площадки для пляжных видов спорта ГБУ «ЦОП» Москомспорта,Крытые площадки для пляжных видов спорта ГБУ «ЦОП» Москомспорта,1091558415,"{'coordinates': [[37.8775989304376, 55.816235517362]], 'type': 'MultiPoint'}",37.8775989304376,55.816235517362,4216515.025408157,7521919.982770508
Комплекс спортивных сооружений «Учебный корпус Училище олимпийского резерва № 2»,Комплекс спортивных сооружений «Учебный корпус Училище олимпийского резерва № 2»,Комплекс спортивных сооружений «Учебный корпус Училище олимпийского резерва № 2»,1091558416,"{'coordinates': [[37.4564982412538, 55.7358521897892]], 'type': 'MultiPoint'}",37.4564982412538,55.7358521897892,4169638.31111552,7506010.005271922
Спортивная площадка «Савелки» (122297),Спортивная площадка «Савелки» (122297),Спортивная площадка «Савелки» (122297),1091558417,"{'coordinates': [[37.2245186983152, 55.9874802578854]], 'type': 'MultiPoint'}",37.2245186983152,55.9874802578854,4143814.4665211393,7555923.733131259
Дворец спорта «Мегаспорт» имени А.В. Тарасова (107200),Дворец спорта «Мегаспорт» имени А.В. Тарасова (107200),Дворец спорта «Мегаспорт» имени А.В. Тарасова (107200),1091558418,"{'coordinates': [[37.5399381969701, 55.7865008931436]], 'type': 'MultiPoint'}",37.5399381969701,55.7865008931436,4178926.804497672,7516030.892524567
Многофункциональный спортивный комплекс ГАУ «СШОР «МЦБИ» Москомспорта,Многофункциональный спортивный комплекс ГАУ «СШОР «МЦБИ» Москомспорта,Многофункциональный спортивный комплекс ГАУ «СШОР «МЦБИ» Москомспорта,1091558419,"{'coordinates': [[37.6180401903614, 55.6317445296624]], 'type': 'MultiPoint'}",37.6180401903614,55.6317445296624,4187621.078631931,7485452.981212442
Спортивный комплекс с бассейном «Меридиан»,Спортивный комплекс с бассейном «Меридиан»,Спортивный комплекс с бассейном «Меридиан»,1091558420,"{'coordinates': [[37.7378716136554, 55.7318311370542]], 'type': 'MultiPoint'}",37.7378716136554,55.7318311370542,4200960.651654053,7505214.9940472925
"Комплекс спортивных сооружений «ГБУ «Дворец детского спорта» Москомспорта» (109544, Рабочая улица, дом 53, строение 2)","Комплекс спортивных сооружений «ГБУ «Дворец детского спорта» Москомспорта» (109544, Рабочая улица, дом 53, строение 2)","Комплекс спортивных сооружений «ГБУ «Дворец детского спорта» Москомспорта» (109544, Рабочая улица, дом 53, строение 2)",1091558421,"{'coordinates': [[37.6910978981986, 55.7399392058399]], 'type': 'MultiPoint'}",37.6910978981986,55.7399392058399,4195753.825466892,7506818.142181831
Спортивный комплекс «Кировский»,Спортивный комплекс «Кировский»,Спортивный комплекс «Кировский»,1091558423,"{'coordinates': [[37.6011666864038, 55.886188182299]], 'type': 'MultiPoint'}",37.6011666864038,55.886188182299,4185742.7287634728,7535792.223443224
Спортивный зал «Спортивная школа олимпийского резерва № 9 Шаболовка»,Спортивный зал «Спортивная школа олимпийского резерва № 9 Шаболовка»,Спортивный зал «Спортивная школа олимпийского резерва № 9 Шаболовка»,1091558424,"{'coordinates': [[37.6159996379313, 55.7210220892772]], 'type': 'MultiPoint'}",37.6159996379313,55.7210220892772,4187393.9253744753,7503078.319166969
Футбольный манеж «Смена»,Футбольный манеж «Смена»,Футбольный манеж «Смена»,1091558425,"{'coordinates': [[37.795138662672, 55.6400827167628]], 'type': 'MultiPoint'}",37.795138662672,55.6400827167628,4207335.590389814,7487097.4195791
Спортивный комплекс «Алексеевский»,Спортивный комплекс «Алексеевский»,Спортивный комплекс «Алексеевский»,1091558426,"{'coordinates': [[37.6674064452867, 55.8231877371393]], 'type': 'MultiPoint'}",37.6674064452867,55.8231877371393,4193116.5049925866,7523297.553469506
Водная база «Строгино»,Водная база «Строгино»,Водная база «Строгино»,1091558427,"{'coordinates': [[37.4297975290288, 55.8024198766036]], 'type': 'MultiPoint'}",37.4297975290288,55.8024198766036,4166666.001426815,7519183.167021103
"Спортивный комплекс «Гребной канал Москва» (121552, Крылатская улица, дом 2, строение 3)","Спортивный комплекс «Гребной канал Москва» (121552, Крылатская улица, дом 2, строение 3)","Спортивный комплекс «Гребной канал Москва» (121552, Крылатская улица, дом 2, строение 3)",1091558430,"{'coordinates': [[37.440350754128, 55.7527012059455]], 'type': 'MultiPoint'}",37.440350754128,55.7527012059455,4167840.7810710846,7509342.152383095
Спортивный комплекс «Мосфильмовский»,Спортивный комплекс «Мосфильмовский»,Спортивный комплекс «Мосфильмовский»,1091558431,"{'coordinates': [[37.5102332633557, 55.7100196813004]], 'type': 'MultiPoint'}",37.5102332633557,55.7100196813004,4175620.0664136694,7500904.029126298
Спортивный комплекс «Яуза»,Спортивный комплекс «Яуза»,Спортивный комплекс «Яуза»,1091558432,"{'coordinates': [[37.665638359796, 55.8795101747752]], 'type': 'MultiPoint'}",37.665638359796,55.8795101747752,4192919.6826160825,7534466.835955397
Спортивный комплекс «Отрадное»,Спортивный комплекс «Отрадное»,Спортивный комплекс «Отрадное»,1091558433,"{'coordinates': [[37.594195024812, 55.8569480446172]], 'type': 'MultiPoint'}",37.594195024812,55.8569480446172,4184966.646945091,7529990.604353899
Спортивная площадка «Комплекс спортивных сооружений «Рублево»,Спортивная площадка «Комплекс спортивных сооружений «Рублево»,Спортивная площадка «Комплекс спортивных сооружений «Рублево»,1091558434,"{'coordinates': [[37.3533273806113, 55.7886311687341]], 'type': 'MultiPoint'}",37.3533273806113,55.7886311687341,4158153.3834440927,7516452.654682662
"Лыжная трасса и база (сезонная) «ГБУ «ЦФКиС ЗАО г. Москвы» Москомспорта, ул. Рассказовская, дом 31»","Лыжная трасса и база (сезонная) «ГБУ «ЦФКиС ЗАО г. Москвы» Москомспорта, ул. Рассказовская, дом 31»","Лыжная трасса и база (сезонная) «ГБУ «ЦФКиС ЗАО г. Москвы» Москомспорта, ул. Рассказовская, дом 31»",1091558435,"{'coordinates': [[37.31039275063, 55.6135005327303]], 'type': 'MultiPoint'}",37.31039275063,55.6135005327303,4153373.9222971774,7481856.161517008
"Спортивный комплекс «Луч», ул. Владимирская 1-я, дом 10Б","Спортивный комплекс «Луч», ул. Владимирская 1-я, дом 10Б","Спортивный комплекс «Луч», ул. Владимирская 1-я, дом 10Б",1091558436,"{'coordinates': [[37.7713674049984, 55.7581191015746]], 'type': 'MultiPoint'}",37.7713674049984,55.7581191015746,4204689.386090073,7510413.928783295
"Спортивный комплекс «Косино», ул. Николая Старостина, дом 8Б","Спортивный комплекс «Косино», ул. Николая Старостина, дом 8Б","Спортивный комплекс «Косино», ул. Николая Старостина, дом 8Б",1091558437,"{'coordinates': [[37.8527171673518, 55.7300183963646]], 'type': 'MultiPoint'}",37.8527171673518,55.7300183963646,4213745.200211407,7504856.619857997
Футбольный манеж «Олимп»,Футбольный манеж «Олимп»,Футбольный манеж «Олимп»,1091558440,"{'coordinates': [[37.8788506465612, 55.7477580670013]], 'type': 'MultiPoint'}",37.8788506465612,55.7477580670013,4216654.365809654,7508364.422936991
"Пункт выдачи спортивного инвентаря ГБУ «МосСпортОбъект», г. Зеленоград, аллея Озерная, дом 2 (122296)","Пункт выдачи спортивного инвентаря ГБУ «МосСпортОбъект», г. Зеленоград, аллея Озерная, дом 2 (122296)","Пункт выдачи спортивного инвентаря ГБУ «МосСпортОбъект», г. Зеленоград, аллея Озерная, дом 2 (122296)",1091558441,"{'coordinates': [[37.2245186983152, 55.9874802578854]], 'type': 'MultiPoint'}",37.2245186983152,55.9874802578854,4143814.4665211393,7555923.733131259
Крытое сооружение с искусственным льдом «Академия хоккея»,Крытое сооружение с искусственным льдом «Академия хоккея»,Крытое сооружение с искусственным льдом «Академия хоккея»,1091558443,"{'coordinates': [[37.473813182922, 55.675993186787]], 'type': 'MultiPoint'}",37.473813182922,55.675993186787,4171565.8016051394,7494183.603825157
"Центр единоборств «Победа», ул. Седова, дом 12А, строение 1","Центр единоборств «Победа», ул. Седова, дом 12А, строение 1","Центр единоборств «Победа», ул. Седова, дом 12А, строение 1",1091558444,"{'coordinates': [[37.6381185624707, 55.8537817013468]], 'type': 'MultiPoint'}",37.6381185624707,55.8537817013468,4189856.1927910964,7529362.62319204
"Центр единоборств «Победа», ул. Седова, дом 12А","Центр единоборств «Победа», ул. Седова, дом 12А","Центр единоборств «Победа», ул. Седова, дом 12А",1103634666,"{'coordinates': [[37.6376106609163, 55.8534061662919]], 'type': 'MultiPoint'}",37.6376106609163,55.8534061662919,4189799.6534486874,7529288.146683214
Спортивный клуб «На Лодочной» (121605),Спортивный клуб «На Лодочной» (121605),Спортивный клуб «На Лодочной» (121605),1103634667,"{'coordinates': [[37.4623022459036, 55.836962573943]], 'type': 'MultiPoint'}",37.4623022459036,55.836962573943,4170284.409957698,7526027.741557384
Спортивный комплекс «Меридиан»,Спортивный комплекс «Меридиан»,Спортивный комплекс «Меридиан»,1146051383,"{'coordinates': [[37.7364351488475, 55.731875794254]], 'type': 'MultiPoint'}",37.7364351488475,55.731875794254,4200800.745123094,7505223.822871289
Спортивный комплекс среднего профессионального образовательного учреждения «ГБПОУ «МССУОР № 3» Москомспорта»,Спортивный комплекс среднего профессионального образовательного учреждения «ГБПОУ «МССУОР № 3» Москомспорта»,Спортивный комплекс среднего профессионального образовательного учреждения «ГБПОУ «МССУОР № 3» Москомспорта»,1146051387,"{'coordinates': [[37.7323956123224, 55.7869909654994]], 'type': 'MultiPoint'}",37.7323956123224,55.7869909654994,4200351.06597408,7516127.917352762
Стрелковый тир ГБУ «Московская академия современного пятиборья»,Стрелковый тир ГБУ «Московская академия современного пятиборья»,Стрелковый тир ГБУ «Московская академия современного пятиборья»,1146051391,"{'coordinates': [[37.5559247672845, 55.9366937483093]], 'type': 'MultiPoint'}",37.5559247672845,55.9366937483093,4180706.421364602,7545823.480087853
"ЛВС №3 СК «Северное Бутово», «спортивный зал»","ЛВС №3 СК «Северное Бутово», «спортивный зал»","ЛВС №3 СК «Северное Бутово», «спортивный зал»",1146051393,"{'coordinates': [[37.5846457218239, 55.570395133477]], 'type': 'MultiPoint'}",37.5846457218239,55.570395133477,4183903.6233990244,7473364.538058454
Спортивный комплекс «ГБУ «СШ № 93 «На Можайке» Москомспорта,Спортивный комплекс «ГБУ «СШ № 93 «На Можайке» Москомспорта,Спортивный комплекс «ГБУ «СШ № 93 «На Можайке» Москомспорта,1146051398,"{'coordinates': [[37.4214464824262, 55.7216775449738]], 'type': 'MultiPoint'}",37.4214464824262,55.7216775449738,4165736.3671714226,7503207.869306315
Спортивный зал ГБУ «Московская академия современного пятиборья»,Спортивный зал ГБУ «Московская академия современного пятиборья»,Спортивный зал ГБУ «Московская академия современного пятиборья»,1146051399,"{'coordinates': [[37.5560017333177, 55.9369639595152]], 'type': 'MultiPoint'}",37.5560017333177,55.9369639595152,4180714.989184226,7545877.183745484
Ледовый дворец «Крылатское» (108060),Ледовый дворец «Крылатское» (108060),Ледовый дворец «Крылатское» (108060),1146051405,"{'coordinates': [[37.4351027399713, 55.766583849198]], 'type': 'MultiPoint'}",37.4351027399713,55.766583849198,4167256.5748074856,7512088.73618302
Физкультурно-оздоровительный комплекс «ГБОУ ЦСиО Самбо-70 отделение Севастопольский»,Физкультурно-оздоровительный комплекс «ГБОУ ЦСиО Самбо-70 отделение Севастопольский»,Физкультурно-оздоровительный комплекс «ГБОУ ЦСиО Самбо-70 отделение Севастопольский»,1146051408,"{'coordinates': [[37.5579428508637, 55.6644825077144]], 'type': 'MultiPoint'}",37.5579428508637,55.6644825077144,4180931.073401016,7491911.502779273
Спортивный комплекс «Лаун-теннис»,Спортивный комплекс «Лаун-теннис»,Спортивный комплекс «Лаун-теннис»,1146051409,"{'coordinates': [[37.5360186332792, 55.6018431088898]], 'type': 'MultiPoint'}",37.5360186332792,55.6018431088898,4178490.4806634686,7479558.766587657
Спортивный комплекс «Марьина Роща»,Спортивный комплекс «Марьина Роща»,Спортивный комплекс «Марьина Роща»,1146051410,"{'coordinates': [[37.6226275565202, 55.7969310175115]], 'type': 'MultiPoint'}",37.6226275565202,55.7969310175115,4188131.741896811,7518096.118494738
Дворец борьбы им. Ивана Ярыгина (106205),Дворец борьбы имени Ивана Ярыгина (106205),Дворец борьбы им. Ивана Ярыгина (106205),1146051417,"{'coordinates': [[37.7202250440814, 55.7417909962999]], 'type': 'MultiPoint'}",37.7202250440814,55.7417909962999,4198996.244514827,7507184.329656389
ДИВС «Содружество»,Дворец игровых видов спорта «Содружество»,ДИВС «Содружество»,1146051418,"{'coordinates': [[37.536690843524, 55.6045486760719]], 'type': 'MultiPoint'}",37.536690843524,55.6045486760719,4178565.3107656264,7480091.907279079
Стадион «Авангард»,Стадион «Авангард»,Стадион «Авангард»,1146051421,"{'coordinates': [[37.773274651786, 55.7642711933297]], 'type': 'MultiPoint'}",37.773274651786,55.7642711933297,4204901.6998312855,7511631.125525983
Спортивный клуб «Северо-Запад»,Спортивный клуб «Северо-Запад»,Спортивный клуб «Северо-Запад»,1146051429,"{'coordinates': [[37.4767795070097, 55.7875257043657]], 'type': 'MultiPoint'}",37.4767795070097,55.7875257043657,4171896.01129211,7516233.786676835
Аквастудия «На Береговой»,Аквастудия «На Береговой»,Аквастудия «На Береговой»,1146051437,"{'coordinates': [[37.4705111861538, 55.829640975496]], 'type': 'MultiPoint'}",37.4705111861538,55.829640975496,4171198.2250063024,7524576.472157516
Футбольный манеж «ГБУ «СШ № 4» Москомспорта»,Футбольный манеж «ГБУ «СШ № 4» Москомспорта»,Футбольный манеж «ГБУ «СШ № 4» Москомспорта»,1146051439,"{'coordinates': [[37.9236425953908, 55.6855111380276]], 'type': 'MultiPoint'}",37.9236425953908,55.6855111380276,4221640.5827450035,7496062.863932733
Площадка для керлинга крытая ГБУ «СШОР «Москвич» Москомспорта,Площадка для керлинга крытая ГБУ «СШОР «Москвич» Москомспорта,Площадка для керлинга крытая ГБУ «СШОР «Москвич» Москомспорта,1146051441,"{'coordinates': [[37.7383551028665, 55.708261366589]], 'type': 'MultiPoint'}",37.7383551028665,55.708261366589,4201014.473426836,7500556.6086520655
Административное здание со спортивным залом «ГБУ «СШОР № 95» Москомспорта»,Административное здание со спортивным залом «ГБУ «СШОР № 95» Москомспорта»,Административное здание со спортивным залом «ГБУ «СШОР № 95» Москомспорта»,1146054233,"{'coordinates': [[37.5100068735485, 55.7525922243452]], 'type': 'MultiPoint'}",37.5100068735485,55.7525922243452,4175594.86481561,7509320.595003616
Спортивный зал «Спортивная школа олимпийского резерва по художественной гимнастике»,Спортивный зал «Спортивная школа олимпийского резерва по художественной гимнастике»,Спортивный зал «Спортивная школа олимпийского резерва по художественной гимнастике»,1146054234,"{'coordinates': [[37.4936697261844, 55.6845362771937]], 'type': 'MultiPoint'}",37.4936697261844,55.6845362771937,4173776.221890025,7495870.362718787
Комплекс спортивных сооружений «Спортивная школа олимпийского резерва №27 Сокол»,Комплекс спортивных сооружений «Спортивная школа олимпийского резерва №27 Сокол»,Комплекс спортивных сооружений «Спортивная школа олимпийского резерва №27 Сокол»,1146054235,"{'coordinates': [[37.6631430298062, 55.784221200935]], 'type': 'MultiPoint'}",37.6631430298062,55.784221200935,4192641.903752257,7515579.573694156
"СК «Вымпел» (111558, Федеративный проспект, дом 31А, строение 7)","Спортивный комплекс «Вымпел» (111558, Федеративный проспект, дом 31А, строение 7)","СК «Вымпел» (111558, Федеративный проспект, дом 31А, строение 7)",1146054236,"{'coordinates': [[37.8239740397068, 55.7549362273739]], 'type': 'MultiPoint'}",37.8239740397068,55.7549362273739,4210545.529878159,7509784.269700539
Спортивный зал «Шахматная школа Анатолия Карпова»,Спортивный зал «Шахматная школа Анатолия Карпова»,Спортивный зал «Шахматная школа Анатолия Карпова»,1146054237,"{'coordinates': [[37.543145952355, 55.7736871565745]], 'type': 'MultiPoint'}",37.543145952355,55.7736871565745,4179283.8901937082,7513494.454076479
Физкультурно-оздоровительный комплекс «Спортивная школа олимпийского резерва № 45»,Физкультурно-оздоровительный комплекс «Спортивная школа олимпийского резерва № 45»,Физкультурно-оздоровительный комплекс «Спортивная школа олимпийского резерва № 45»,1146054238,"{'coordinates': [[37.6578882685597, 55.6722636223157]], 'type': 'MultiPoint'}",37.6578882685597,55.6722636223157,4192056.946406056,7493447.349266011
Плавательный бассейн «Медведково» ГБУ «СШОР № 2» Москомспорта,Плавательный бассейн «Медведково» ГБУ «СШОР № 2» Москомспорта,Плавательный бассейн «Медведково» ГБУ «СШОР № 2» Москомспорта,1146054239,"{'coordinates': [[37.6321187698597, 55.8668959692749]], 'type': 'MultiPoint'}",37.6321187698597,55.8668959692749,4189188.2989327745,7531963.910215553
СК «Измайлово»,Спортивный комплекс «Измайлово»,СК «Измайлово»,1146054240,"{'coordinates': [[37.8042822010635, 55.8056387932348]], 'type': 'MultiPoint'}",37.8042822010635,55.8056387932348,4208353.444427605,7519820.73301096
Стадион «Арена-Сокол»,Стадион «Арена-Сокол» ГБУ «СШОР № 27 «Сокол» Москомспорта»,Стадион «Арена-Сокол»,1146054241,"{'coordinates': [[37.6696151496367, 55.7722240520125]], 'type': 'MultiPoint'}",37.6696151496367,55.7722240520125,4193362.3768361406,7513204.890222479
Бассейн «Южный»,Бассейн «Южный»,Бассейн «Южный»,1146054242,"{'coordinates': [[37.6741917594637, 55.5841068639951]], 'type': 'MultiPoint'}",37.6741917594637,55.5841068639951,4193871.842711643,7476064.692933434
Футбольное поле «ГБУ «СШОР № 44» Москомспорта»,Футбольное поле «ГБУ «СШОР № 44» Москомспорта»,Футбольное поле «ГБУ «СШОР № 44» Москомспорта»,1146054243,"{'coordinates': [[37.7080786538819, 55.6342126923388]], 'type': 'MultiPoint'}",37.7080786538819,55.6342126923388,4197644.114542842,7485939.710198773
Спортивный комплекс «Борисово»,Спортивный комплекс «Борисово»,Спортивный комплекс «Борисово»,1146054244,"{'coordinates': [[37.7264960010319, 55.6362324966308]], 'type': 'MultiPoint'}",37.7264960010319,55.6362324966308,4199694.324249343,7486338.044397103
Физкультурно-оздоровительный комплекс «Южное Бутово»,Физкультурно-оздоровительный комплекс «Южное Бутово»,Физкультурно-оздоровительный комплекс «Южное Бутово»,1146054245,"{'coordinates': [[37.5485196328542, 55.5502224472233]], 'type': 'MultiPoint'}",37.5485196328542,55.5502224472233,4179882.0855705654,7469393.785605554
Стадион «Первомайский»,Стадион «Первомайский» спортивного комплекса «Вымпел»,Стадион «Первомайский»,1146054246,"{'coordinates': [[37.7576044523914, 55.782676736762]], 'type': 'MultiPoint'}",37.7576044523914,55.782676736762,4203157.30121405,7515273.825596448
Физкультурно-оздоровительный комплекс «ГБУ «СШОР №54 «Ориента» Москомспорта»,Физкультурно-оздоровительный комплекс «ГБУ «СШОР №54 «Ориента» Москомспорта»,Физкультурно-оздоровительный комплекс «ГБУ «СШОР №54 «Ориента» Москомспорта»,1146054247,"{'coordinates': [[37.8266635690501, 55.755014630429]], 'type': 'MultiPoint'}",37.8266635690501,55.755014630429,4210844.926915129,7509799.779339921
Физкультурно-оздоровительный комплекс с бассейном «Курьяново»,Физкультурно-оздоровительный комплекс с бассейном «Курьяново»,Физкультурно-оздоровительный комплекс с бассейном «Курьяново»,1146054248,"{'coordinates': [[37.6956208161556, 55.6559082068722]], 'type': 'MultiPoint'}",37.6956208161556,55.6559082068722,4196257.3143907655,7490219.449756412
Спортивная школа ГБУ «МКСШОР «Юг»,ГБУ «Московская комплексная спортивная школа олимпийского резерва «Юг» Департамента спорта города Москвы,Спортивная школа ГБУ «МКСШОР «Юг»,1146054249,"{'coordinates': [[37.6746184976927, 55.6195677440619]], 'type': 'MultiPoint'}",37.6746184976927,55.6195677440619,4193919.3469939968,7483052.131672498
СК «Коралл»,Спортивный комплекс «Коралл»,СК «Коралл»,1146054250,"{'coordinates': [[37.6685413080805, 55.7854213217902]], 'type': 'MultiPoint'}",37.6685413080805,55.7854213217902,4193242.837340913,7515817.162625802
"Спортивный комплекс «Чертаново» (117570, улица Красного Маяка, дом 28, корпус 1)","Спортивный комплекс «Чертаново» (117570, улица Красного Маяка, дом 28, корпус 1)","Спортивный комплекс «Чертаново» (117570, улица Красного Маяка, дом 28, корпус 1)",1146054251,"{'coordinates': [[37.5784502465754, 55.6058754098197]], 'type': 'MultiPoint'}",37.5784502465754,55.6058754098197,4183213.9462491395,7480353.35785762
Физкультурно-оздоровительный комплекс «Спортивная школа олимпийского резерва № 27 «Сокол»,Физкультурно-оздоровительный комплекс «Спортивная школа олимпийского резерва № 27 «Сокол»,Физкультурно-оздоровительный комплекс «Спортивная школа олимпийского резерва № 27 «Сокол»,1146054252,"{'coordinates': [[37.6617742850748, 55.7855155280796]], 'type': 'MultiPoint'}",37.6617742850748,55.7855155280796,4192489.5357857314,7515835.813033675
Физкультурно-оздоровительный комплекс с бассейном «Есенинский»,Физкультурно-оздоровительный комплекс с бассейном «Есенинский»,Физкультурно-оздоровительный комплекс с бассейном «Есенинский»,1146054253,"{'coordinates': [[37.7814432887154, 55.7006549682674]], 'type': 'MultiPoint'}",37.7814432887154,55.7006549682674,4205811.0283347415,7499053.861814292
"ЛВС №3 СК «Ново-Переделкино», «тренажерный зал»","ЛВС №3 СК «Ново-Переделкино», «тренажерный зал»","ЛВС №3 СК «Ново-Переделкино», «тренажерный зал»",1146054254,"{'coordinates': [[37.3797200486554, 55.6302163540462]], 'type': 'MultiPoint'}",37.3797200486554,55.6302163540462,4161091.4018114386,7485151.63582436
Ледовый дворец «Медведково»,Ледовый дворец «Медведково»,Ледовый дворец «Медведково»,1146054255,"{'coordinates': [[37.6333516254327, 55.8664501290889]], 'type': 'MultiPoint'}",37.6333516254327,55.8664501290889,4189325.5397873824,7531875.460947071
Спортивный комплекс «Фестивальный»,Спортивный комплекс «Фестивальный»,Спортивный комплекс «Фестивальный»,1146054257,"{'coordinates': [[37.621665306808, 55.7919614599358]], 'type': 'MultiPoint'}",37.621665306808,55.7919614599358,4188024.6247488325,7517112.0478904825
Физкультурно-оздоровительный комплекс «Спортивная школа олимпийского резерва № 61 «Фортуна»,Физкультурно-оздоровительный комплекс «Спортивная школа олимпийского резерва № 61 «Фортуна»,Физкультурно-оздоровительный комплекс «Спортивная школа олимпийского резерва № 61 «Фортуна»,1146054258,"{'coordinates': [[37.6735307767333, 55.7141615296504]], 'type': 'MultiPoint'}",37.6735307767333,55.7141615296504,4193798.2624506713,7501722.467128067
Лукодром УСК Курьяново,Лукодром УСК Курьяново,Лукодром УСК Курьяново,1146054259,"{'coordinates': [[37.6972196075465, 55.6571169057074]], 'type': 'MultiPoint'}",37.6972196075465,55.6571169057074,4196435.291034284,7490457.952013875
"СК «Центральный» (119270, 3-я Фрунзенская улица, дом 5)","Спортивный комплекс «Центральный» (119270, 3-я Фрунзенская улица, дом 5)","СК «Центральный» (119270, 3-я Фрунзенская улица, дом 5)",1146054260,"{'coordinates': [[37.5788101881687, 55.7200506142515]], 'type': 'MultiPoint'}",37.5788101881687,55.7200506142515,4183254.0147640207,7502886.312134049
ФОК «ГБУ «СШОР № 95» Москомспорта»,Физкультурно-оздоровительный комплекс «ГБУ «СШОР № 95» Москомспорта»,ФОК «ГБУ «СШОР № 95» Москомспорта»,1146054261,"{'coordinates': [[37.5110192300413, 55.7526862130201]], 'type': 'MultiPoint'}",37.5110192300413,55.7526862130201,4175707.55982489,7509339.186666213
Спортивный зал «Спортивная школа олимпийского резерва «Бауманская»,Спортивный зал «Спортивная школа олимпийского резерва «Бауманская»,Спортивный зал «Спортивная школа олимпийского резерва «Бауманская»,1146054262,"{'coordinates': [[37.6484270861649, 55.7653192115779]], 'type': 'MultiPoint'}",37.6484270861649,55.7653192115779,4191003.732399565,7511838.495998972
Физкультурно-оздоровительный комплекс «Спортивная школа олимпийского резерва «Бауманская»,Физкультурно-оздоровительный комплекс «Спортивная школа олимпийского резерва «Бауманская»,Физкультурно-оздоровительный комплекс «Спортивная школа олимпийского резерва «Бауманская»,1146054263,"{'coordinates': [[37.7093730697423, 55.8675268215887]], 'type': 'MultiPoint'}",37.7093730697423,55.8675268215887,4197788.208257296,7532089.065373897
"СК «Вымпел» (111558, Федеративный проспект, дом 31А, строение 1)","Спортивный комплекс «Вымпел» (111558, Федеративный проспект, дом 31А, строение 1)","СК «Вымпел» (111558, Федеративный проспект, дом 31А, строение 1)",1146054264,"{'coordinates': [[37.8247175251741, 55.754806120984]], 'type': 'MultiPoint'}",37.8247175251741,55.754806120984,4210628.294301792,7509758.532211197
Комплекс спортивных сооружений «Борисовские Пруды» ГБУ «СШОР № 44» Москомспорта,Комплекс спортивных сооружений «Борисовские Пруды» ГБУ «СШОР № 44» Департамента спорта города Москвы,Комплекс спортивных сооружений «Борисовские Пруды» ГБУ «СШОР № 44» Москомспорта,1146054265,"{'coordinates': [[37.7080786538819, 55.6342126923388]], 'type': 'MultiPoint'}",37.7080786538819,55.6342126923388,4197644.114542842,7485939.710198773
Физкультурно-оздоровительный комплекс «Южный»,Физкультурно-оздоровительный комплекс «Южный»,Физкультурно-оздоровительный комплекс «Южный»,1146054266,"{'coordinates': [[37.6741089401142, 55.5854277345311]], 'type': 'MultiPoint'}",37.6741089401142,55.5854277345311,4193862.6233038283,7476324.852499932
Спортивный комплекс «Вятский»,Спортивный комплекс «Вятский»,Спортивный комплекс «Вятский»,1146054267,"{'coordinates': [[37.5825271922127, 55.7957714231515]], 'type': 'MultiPoint'}",37.5825271922127,55.7957714231515,4183667.7897614753,7517866.484664665
ФОК «ГБУ «МКСШОР «Юг»,Физкультурно-оздоровительный комплекс «ГБУ «Московская комплексная спортивная школа олимпийского резерва «Юг» Департамента спорта города Москвы»,ФОК «ГБУ «МКСШОР «Юг»,1146054268,"{'coordinates': [[37.665449068132, 55.6342853534777]], 'type': 'MultiPoint'}",37.665449068132,55.6342853534777,4192898.610764434,7485954.039655063
Комплекс спортивных сооружений «Спортивная школа олимпийского резерва № 46»,Комплекс спортивных сооружений «Спортивная школа олимпийского резерва № 46»,Комплекс спортивных сооружений «Спортивная школа олимпийского резерва № 46»,1146054269,"{'coordinates': [[37.677197869138, 55.6065781011947]], 'type': 'MultiPoint'}",37.677197869138,55.6065781011947,4194206.481309854,7480491.836146709
Физкультурно-оздоровительный комплекс «Ясногорский»,Физкультурно-оздоровительный комплекс «Ясногорский»,Физкультурно-оздоровительный комплекс «Ясногорский»,1146054270,"{'coordinates': [[37.5321415859809, 55.6007126030808]], 'type': 'MultiPoint'}",37.5321415859809,55.6007126030808,4178058.889732441,7479336.007683932
"СК «Центральный» (109004, Товарищеский переулок, дом 25, строение 1)","Спортивный комплекс «Центральный» (109004, Товарищеский переулок, дом 25, строение 1)","СК «Центральный» (109004, Товарищеский переулок, дом 25, строение 1)",1146054271,"{'coordinates': [[37.6661965111636, 55.7440299868699]], 'type': 'MultiPoint'}",37.6661965111636,55.7440299868699,4192981.815742109,7507627.108305305
"Спортивный комплекс «Чертаново» (117587, Кировоградская улица, дом 10А)","Спортивный комплекс «Чертаново» (117587, Кировоградская улица, дом 10А)","Спортивный комплекс «Чертаново» (117587, Кировоградская улица, дом 10А)",1146054272,"{'coordinates': [[37.6066244990649, 55.6264430706557]], 'type': 'MultiPoint'}",37.6066244990649,55.6264430706557,4186350.2896897513,7484407.621441376
Крытое сооружение с искусственным льдом «Медведково»,Крытое сооружение с искусственным льдом «Медведково»,Крытое сооружение с искусственным льдом «Медведково»,1146054273,"{'coordinates': [[37.6345003138807, 55.866031883674]], 'type': 'MultiPoint'}",37.6345003138807,55.866031883674,4189453.4112004936,7531792.487068388
Бассейн «Шипиловский»,Бассейн «Шипиловский»,Бассейн «Шипиловский»,1146054274,"{'coordinates': [[37.709291983228, 55.6043478928932]], 'type': 'MultiPoint'}",37.709291983228,55.6043478928932,4197779.181747815,7480052.34104647
Комплекс спортивных сооружений «ДОГ Подмосковные зори»,Комплекс спортивных сооружений «ДОГ Подмосковные зори»,Комплекс спортивных сооружений «ДОГ Подмосковные зори»,1146055476,"{'coordinates': [[38.2393480645009, 55.8919654827986]], 'type': 'MultiPoint'}",38.2393480645009,55.8919654827986,4256784.754806992,7536939.031152797
Гребная база и канал «Лодочная станция «Парусный центр Хлебниково»,Гребная база и канал «Лодочная станция «Парусный центр Хлебниково»,Гребная база и канал «Лодочная станция «Парусный центр Хлебниково»,1146055485,"{'coordinates': [[37.5435902140592, 55.9763370222124]], 'type': 'MultiPoint'}",37.5435902140592,55.9763370222124,4179333.345180399,7553706.467911787
Спортивный зал «Манеж» спортивной базы «Чехов»,Спортивный зал «Манеж» спортивной базы «Чехов»,Спортивный зал «Манеж» спортивной базы «Чехов»,1146055488,"{'coordinates': [[37.5239400710752, 55.1313602315532]], 'type': 'MultiPoint'}",37.5239400710752,55.1313602315532,4177145.901269405,7387402.306934673
Спортивная база «Чехов»,Спортивная база «Чехов»,Спортивная база «Чехов»,1146055491,"{'coordinates': [[37.5253015549028, 55.1302294523401]], 'type': 'MultiPoint'}",37.5253015549028,55.1302294523401,4177297.460955817,7387182.127348995
Комплекс спортивных сооружений «Спортивная школа олимпийского резерва «Хлебниково»,Комплекс спортивных сооружений «Спортивная школа олимпийского резерва «Хлебниково»,Комплекс спортивных сооружений «Спортивная школа олимпийского резерва «Хлебниково»,1146055493,"{'coordinates': [[37.5448052767492, 55.97617472936]], 'type': 'MultiPoint'}",37.5448052767492,55.97617472936,4179468.605340332,7553674.179829977
Спортивный клуб «Гамбит»,Спортивный клуб «Гамбит»,Спортивный клуб «Гамбит»,1146061827,"{'coordinates': [[37.5191593674242, 55.8723489903224]], 'type': 'MultiPoint'}",37.5191593674242,55.8723489903224,4176613.7157733417,7533045.805404786
Лыжная база «Сходня» (121530),Лыжная база «Сходня» (121530),Лыжная база «Сходня» (121530),1146074754,"{'coordinates': [[37.2825583816087, 55.9338159296379]], 'type': 'MultiPoint'}",37.2825583816087,55.9338159296379,4150275.4145111744,7545251.545593431
ТБ «Лопотово» (121448),Туристическая база «Лопотово» (121448),ТБ «Лопотово» (121448),1146074755,"{'coordinates': [[36.842030390372, 56.0550424102821]], 'type': 'MultiPoint'}",36.842030390372,56.0550424102821,4101236.0628465214,7569380.855297152
МСК «Жаворонки» (122264),Многофункциональный спортивный комплекс «Жаворонки» (122264),МСК «Жаворонки» (122264),1146074761,"{'coordinates': [[37.0823525558483, 55.6151198457875]], 'type': 'MultiPoint'}",37.0823525558483,55.6151198457875,4127988.60393368,7482175.342790411
ФОК «Спортивная школа Хамовники»( 121395 ),Физкультурно-оздоровительный комплекс «Спортивная школа Хамовники»( 121395 ),ФОК «Спортивная школа Хамовники»( 121395 ),1146082029,"{'coordinates': [[37.5782740907017, 55.7196657202805]], 'type': 'MultiPoint'}",37.5782740907017,55.7196657202805,4183194.336666978,7502810.241144979
Спортивный комплекс «Солнечный»( 121712 ),Спортивный комплекс «Солнечный»( 121712 ),Спортивный комплекс «Солнечный»( 121712 ),1146083159,"{'coordinates': [[37.4157410781426, 55.6533752014385]], 'type': 'MultiPoint'}",37.4157410781426,55.6533752014385,4165101.244471803,7489719.657229233
Спортивный комплекс «Ритм»( 102406 ),Спортивный комплекс «Ритм»( 102406 ),Спортивный комплекс «Ритм»( 102406 ),1146083160,"{'coordinates': [[37.4175355910286, 55.731668892292]], 'type': 'MultiPoint'}",37.4175355910286,55.731668892292,4165301.0087324944,7505182.917995498
Спортивный комплекс «Восход Солнцево»( 108054 ),Спортивный комплекс «Восход Солнцево»( 108054 ),Спортивный комплекс «Восход Солнцево»( 108054 ),1146083161,"{'coordinates': [[37.4030532019483, 55.6467691184285]], 'type': 'MultiPoint'}",37.4030532019483,55.6467691184285,4163688.8365546055,7488416.349472792
Стадион «Косино»,Стадион «Косино»,Стадион «Косино»,1266921351,"{'coordinates': [[37.8583683576315, 55.7290802459868]], 'type': 'MultiPoint'}",37.8583683576315,55.7290802459868,4214374.287835719,7504671.156466556
Спортивный комплекс «Коломенский»,Спортивный комплекс «Коломенский»,Спортивный комплекс «Коломенский»,1266921354,"{'coordinates': [[37.640949479879, 55.6652285036799]], 'type': 'MultiPoint'}",37.640949479879,55.6652285036799,4190171.3290754654,7492058.735194635
СК «Куркино»,Спортивный комплекс «Куркино»,СК «Куркино»,2366427837,"{'coordinates': [[37.388507637382, 55.881201318833]], 'type': 'MultiPoint'}",37.388507637382,55.881201318833,4162069.631713784,7534802.456601684
Физкультурно-оздоровительный комплекс «ГБУ «СШОР №2» Мосокомспорта»,Физкультурно-оздоровительный комплекс «ГБУ «СШОР №2» Мосокомспорта»,Физкультурно-оздоровительный комплекс «ГБУ «СШОР №2» Мосокомспорта»,2366525463,"{'coordinates': [[37.6247751935525, 55.8769424212157]], 'type': 'MultiPoint'}",37.6247751935525,55.8769424212157,4188370.8157576555,7533957.273309618
Стадион «Ракета»,Стадион «Ракета»,Стадион «Ракета»,2372609661,"{'coordinates': [[37.759827375412, 55.789048089955]], 'type': 'MultiPoint'}",37.759827375412,55.789048089955,4203404.755872776,7516535.201440287
ТБ «Лопотово»,Туристическая база «Лопотово»,ТБ «Лопотово»,2372609662,"{'coordinates': [[36.841927170753, 56.055117428309]], 'type': 'MultiPoint'}",36.841927170753,56.055117428309,4101224.5724910945,7569395.810586038
Лыжная база «Сходня»,Лыжная база «Сходня»,Лыжная база «Сходня»,2372609663,"{'coordinates': [[37.281782627106, 55.934008703946]], 'type': 'MultiPoint'}",37.281782627106,55.934008703946,4150189.0579149527,7545289.856018228
Спортивный комплекс «Авангард»,Спортивный комплекс «Авангард»,Спортивный комплекс «Авангард»,2372609664,"{'coordinates': [[37.773274651786, 55.7642711933297]], 'type': 'MultiPoint'}",37.773274651786,55.7642711933297,4204901.6998312855,7511631.125525983
Спортивный зал «На ул. Петрозаводская»,Спортивный зал «На ул. Петрозаводская»,Спортивный зал «На ул. Петрозаводская»,2372609665,"{'coordinates': [[37.5021223910557, 55.8642715677844]], 'type': 'MultiPoint'}",37.5021223910557,55.8642715677844,4174717.168239344,7531443.275490983
МСК «Жаворонки»,Многофункциональный спортивный комплекс «Жаворонки»,МСК «Жаворонки»,2372609666,"{'coordinates': [[37.082751989365, 55.61527319708]], 'type': 'MultiPoint'}",37.082751989365,55.61527319708,4128033.0686693643,7482205.570402701
"Спортивный зал «Вальдеман», Спортивная база «Олимпийские надежды» ГБУ «Московская баскетбольная академия» Москомспорта»","Спортивный зал «Вальдеман», Спортивная база «Олимпийские надежды» ГБУ «Московская баскетбольная академия» Москомспорта»","Спортивный зал «Вальдеман», Спортивная база «Олимпийские надежды» ГБУ «Московская баскетбольная академия» Москомспорта»",2372609667,"{'coordinates': [[37.2648177698506, 55.4435318182243]], 'type': 'MultiPoint'}",37.2648177698506,55.4435318182243,4148300.5386439012,7448426.831301721
"Спортивный зал «Нижний ФОК», Спортивная база «Олимпийские надежды» ГБУ «Московская баскетбольная академия» Москомспорта»","Спортивный зал «Нижний ФОК», Спортивная база «Олимпийские надежды» ГБУ «Московская баскетбольная академия» Москомспорта»","Спортивный зал «Нижний ФОК», Спортивная база «Олимпийские надежды» ГБУ «Московская баскетбольная академия» Москомспорта»",2372609668,"{'coordinates': [[37.2598528406771, 55.4427363037882]], 'type': 'MultiPoint'}",37.2598528406771,55.4427363037882,4147747.8452564823,7448270.709068956
"Спортивный зал «Детский ФОК», Спортивная база «Олимпийские надежды» ГБУ «Московская баскетбольная академия» Москомспорта»","Спортивный зал «Детский ФОК», Спортивная база «Олимпийские надежды» ГБУ «Московская баскетбольная академия» Москомспорта»","Спортивный зал «Детский ФОК», Спортивная база «Олимпийские надежды» ГБУ «Московская баскетбольная академия» Москомспорта»",2372609669,"{'coordinates': [[37.2599913104967, 55.4432164397198]], 'type': 'MultiPoint'}",37.2599913104967,55.4432164397198,4147763.259646291,7448364.936892779
Физкультурно-оздоровительный комплекс «Спортивная школа олимпийского резерва № 46»,Физкультурно-оздоровительный комплекс «Спортивная школа олимпийского резерва № 46»,Физкультурно-оздоровительный комплекс «Спортивная школа олимпийского резерва № 46»,2372609670,"{'coordinates': [[37.6603826070395, 55.5955050890855]], 'type': 'MultiPoint'}",37.6603826070395,55.5955050890855,4192334.614895494,7478309.983401197
"СК «Юность» (124527, город Зеленоград, корпус 813)","Спортивный комплекс «Юность» (124527, город Зеленоград, корпус 813)","СК «Юность» (124527, город Зеленоград, корпус 813)",2372609671,"{'coordinates': [[37.1870076119497, 55.9768071271313]], 'type': 'MultiPoint'}",37.1870076119497,55.9768071271313,4139638.7514878293,7553799.995814815
ВМХ-велодром «Бутырский» (крытый),ВМХ-велодром «Бутырский» (крытый),ВМХ-велодром «Бутырский» (крытый),2372609672,"{'coordinates': [[37.574464961688, 55.8270819719773]], 'type': 'MultiPoint'}",37.574464961688,55.8270819719773,4182770.3063648073,7524069.297145224
«Спортивный зал»,"ЛВС №2 СК «Куркино», «Спортивный зал»",«Спортивный зал»,2372609673,"{'coordinates': [[37.388880550861, 55.881629671383]], 'type': 'MultiPoint'}",37.388880550861,55.881629671383,4162111.1442523766,7534887.468806082
Комплекс спортивных сооружений «Спортивная база «Олимпийские надежды» ГБУ «Московская баскетбольная академия» Москомспорта»,Комплекс спортивных сооружений «Спортивная база «Олимпийские надежды» ГБУ «Московская баскетбольная академия» Москомспорта»,Комплекс спортивных сооружений «Спортивная база «Олимпийские надежды» ГБУ «Московская баскетбольная академия» Москомспорта»,2372609674,"{'coordinates': [[37.263196069143, 55.4432365690679]], 'type': 'MultiPoint'}",37.263196069143,55.4432365690679,4148120.0117469123,7448368.887350481
Спортивный комплекс «Акватория ЗИЛ»,Спортивный комплекс «Акватория ЗИЛ»,Спортивный комплекс «Акватория ЗИЛ»,2372609675,"{'coordinates': [[37.6473542293608, 55.7011070884265]], 'type': 'MultiPoint'}",37.6473542293608,55.7011070884265,4190884.3025264386,7499143.176089169
Спортивный комплекс «Юрловский»,Спортивный комплекс «Юрловский»,Спортивный комплекс «Юрловский»,2372609676,"{'coordinates': [[37.62581884861, 55.867881382203]], 'type': 'MultiPoint'}",37.62581884861,55.867881382203,4188486.99490722,7532159.407753224
Спортивная площадка «Спортивная база «Олимпийские надежды» ГБУ «Московская баскетбольная академия» Москомспорта»,Спортивная площадка «Спортивная база «Олимпийские надежды» ГБУ «Московская баскетбольная академия» Москомспорта»,Спортивная площадка «Спортивная база «Олимпийские надежды» ГБУ «Московская баскетбольная академия» Москомспорта»,2372609677,"{'coordinates': [[37.263528853655, 55.441930094085]], 'type': 'MultiPoint'}",37.263528853655,55.441930094085,4148157.0571493316,7448112.491067015
СК «Чертаново»,"Спортивный комплекс «Чертаново» (117648, микрорайон Северное Чертаново, корпус 806)",СК «Чертаново»,2372609678,"{'coordinates': [[37.5947113128284, 55.6356276277641]], 'type': 'MultiPoint'}",37.5947113128284,55.6356276277641,4185024.1198641793,7486218.753480268
Крытое сооружение с искусственным льдом «Яуза»,Крытое сооружение с искусственным льдом «Яуза»,Крытое сооружение с искусственным льдом «Яуза»,2372609679,"{'coordinates': [[37.665306329727, 55.880655942508]], 'type': 'MultiPoint'}",37.665306329727,55.880655942508,4192882.721197874,7534694.220845553
Стадион «Вымпел»,Стадион «Вымпел»,Стадион «Вымпел»,2372609680,"{'coordinates': [[37.755315899849, 55.789814171373]], 'type': 'MultiPoint'}",37.755315899849,55.789814171373,4202902.540710377,7516686.881168274
"СК «Юность» (124498, город Зеленоград, корпус 443)","Спортивный комплекс «Юность» (124498, город Зеленоград, корпус 443)","СК «Юность» (124498, город Зеленоград, корпус 443)",2372609681,"{'coordinates': [[37.2066577042286, 55.9930819269643]], 'type': 'MultiPoint'}",37.2066577042286,55.9930819269643,4141826.1897543566,7557038.586659036
Спортивный зал «ГБУ «СШОР № 64» Москомспорта»,Спортивный зал «ГБУ «СШОР № 64» Москомспорта»,Спортивный зал «ГБУ «СШОР № 64» Москомспорта»,2372609682,"{'coordinates': [[37.781727612019, 55.701017289289]], 'type': 'MultiPoint'}",37.781727612019,55.701017289289,4205842.679060118,7499125.436596989
Комплекс спортивных сооружений «Есенинский»,Комплекс спортивных сооружений «Есенинский»,Комплекс спортивных сооружений «Есенинский»,2372609683,"{'coordinates': [[37.7810346630436, 55.7009900613429]], 'type': 'MultiPoint'}",37.7810346630436,55.7009900613429,4205765.540333032,7499120.05782357
СК «Олимпийский центр синхронного плавания Анастасии Давыдовой»,Спортивный комплекс «Олимпийский центр синхронного плавания Анастасии Давыдовой»,СК «Олимпийский центр синхронного плавания Анастасии Давыдовой»,2372609684,"{'coordinates': [[37.6473542293608, 55.7011070884265]], 'type': 'MultiPoint'}",37.6473542293608,55.7011070884265,4190884.3025264386,7499143.176089169
СК «Дом физической культуры»,Спортивный комплекс «Дом физической культуры»,СК «Дом физической культуры»,2372609685,"{'coordinates': [[37.6898532794048, 55.7768219582428]], 'type': 'MultiPoint'}",37.6898532794048,55.7768219582428,4195615.275136534,7514114.901048805
ЦТВС «Москва»,Центр технических видов спорта «Москва»,ЦТВС «Москва»,2372609686,"{'coordinates': [[37.67692565918, 55.653475616156]], 'type': 'MultiPoint'}",37.67692565918,55.653475616156,4194176.179035941,7489739.469648765
Спортивный зал ГБНОУ «Спортивный интернат «Чертаново» Москомспорта,Спортивный зал ГБНОУ «Спортивный интернат «Чертаново» Москомспорта,Спортивный зал ГБНОУ «Спортивный интернат «Чертаново» Москомспорта,2372609687,"{'coordinates': [[37.5949318658312, 55.62684645379]], 'type': 'MultiPoint'}",37.5949318658312,55.62684645379,4185048.671712144,7484487.156933254
Бассейн плавательный (детский) «Спортивная база «Олимпийские надежды» ГБУ «Московская баскетбольная академия» Москомспорта»,Бассейн плавательный (детский) «Спортивная база «Олимпийские надежды» ГБУ «Московская баскетбольная академия» Москомспорта»,Бассейн плавательный (детский) «Спортивная база «Олимпийские надежды» ГБУ «Московская баскетбольная академия» Москомспорта»,2372609688,"{'coordinates': [[37.262464933804, 55.4429242432662]], 'type': 'MultiPoint'}",37.262464933804,55.4429242432662,4148038.6221332736,7448307.592504026
Спортивный зал «На ул. Академика Бочвара»,Спортивный зал «На ул. Академика Бочвара»,Спортивный зал «На ул. Академика Бочвара»,2372609689,"{'coordinates': [[37.4606249811859, 55.806098245869]], 'type': 'MultiPoint'}",37.4606249811859,55.806098245869,4170097.697703398,7519911.740404421
Спортивный зал «Зеленоград 1613»,Спортивный зал «Зеленоград 1613»,Спортивный зал «Зеленоград 1613»,2372609690,"{'coordinates': [[37.1552145989015, 55.9744720848914]], 'type': 'MultiPoint'}",37.1552145989015,55.9744720848914,4136099.5694645196,7553335.447730146
ВМХ-велодром «Зеленоград»,ВМХ-велодром «Зеленоград»,ВМХ-велодром «Зеленоград»,2372609691,"{'coordinates': [[37.1742207686289, 55.9628852126472]], 'type': 'MultiPoint'}",37.1742207686289,55.9628852126472,4138215.3266005036,7551030.696728837
Спортивный зал «Орехово»,Спортивный зал «Орехово»,Спортивный зал «Орехово»,2373050987,"{'coordinates': [[37.713616964831, 55.6149512075357]], 'type': 'MultiPoint'}",37.713616964831,55.6149512075357,4198260.636497551,7482142.102048331
"Физкультурно-оздоровительный комплекс (121433, Малая Филёвская улица, дом 34, корпус 2, строение 4)","Физкультурно-оздоровительный комплекс (121433, Малая Филёвская улица, дом 34, корпус 2, строение 4)","Физкультурно-оздоровительный комплекс (121433, Малая Филёвская улица, дом 34, корпус 2, строение 4)",2373050988,"{'coordinates': [[37.4562317085733, 55.7347606005486]], 'type': 'MultiPoint'}",37.4562317085733,55.7347606005486,4169608.6408332465,7505794.1766517265
Стадион «Москвич»,Стадион «Москвич»,Стадион «Москвич»,2373050989,"{'coordinates': [[37.73570895195, 55.708106694122]], 'type': 'MultiPoint'}",37.73570895195,55.708106694122,4200719.905254249,7500526.048101097
